UNIT,CNTYNAMB,lat,lon,STALP,ZIP,ASSET
Bank Of Zachary,East Baton Rouge,30.532248,-91.117948,LA,70791,"272,703"
Bank Of Zachary,East Baton Rouge,30.646756,-91.240787,LA,70791,"272,703"
Bank Of Zachary,Livingston,30.53742,-90.956421,LA,70791,"272,703"
Bank Of Zachary,Livingston,30.469294,-90.964728,LA,70791,"272,703"
Bank Of Zachary,East Baton Rouge,30.648439,-91.155582,LA,70791,"272,703"
Landmark Bank,East Feliciana,30.865762,-91.018656,LA,70722,"152,341"
Landmark Bank,East Baton Rouge,30.65355,-91.184855,LA,70722,"152,341"
Landmark Bank,East Baton Rouge,30.646624,-91.105909,LA,70722,"152,341"
Landmark Bank,St. Helena,30.829552,-90.667658,LA,70722,"152,341"
The Mer Rouge State Bank,Morehouse,32.775482,-91.792502,LA,71261,"43,637"
Bom Bank,Grant,31.665303,-92.891603,LA,71457,"612,117"
Bom Bank,Sabine,31.34164,-93.847898,LA,71457,"612,117"
Bom Bank,Rapides,31.277733,-92.479729,LA,71457,"612,117"
Bom Bank,Natchitoches,31.478234,-92.804041,LA,71457,"612,117"
Bom Bank,Bossier,32.555954,-93.602551,LA,71457,"612,117"
Bom Bank,Bienville,32.328686,-93.284346,LA,71457,"612,117"
Bom Bank,Rapides,31.264557,-92.451823,LA,71457,"612,117"
Bom Bank,Natchitoches,31.747176,-93.118515,LA,71457,"612,117"
Bom Bank,Caddo,32.461914,-93.72203,LA,71457,"612,117"
Bom Bank,Bossier,32.635473,-93.713727,LA,71457,"612,117"
Bom Bank,Sabine,31.564457,-93.485332,LA,71457,"612,117"
Bom Bank,Natchitoches,31.763952,-93.086042,LA,71457,"612,117"
Bom Bank,Grant,32.424569,-93.721936,LA,71457,"612,117"
Bom Bank,Bienville,32.253372,-93.166637,LA,71457,"612,117"
Bom Bank,Natchitoches,31.752595,-93.064899,LA,71457,"612,117"
The Bank Of Commerce,Iberville,30.170561,-91.146403,LA,70788,"62,992"
Citizens Bank & Trust Company,East Baton Rouge,30.376804,-91.092725,LA,70764,"367,203"
Citizens Bank & Trust Company,East Baton Rouge,30.426238,-91.052645,LA,70764,"367,203"
Citizens Bank & Trust Company,East Baton Rouge,30.408561,-91.008513,LA,70764,"367,203"
Citizens Bank & Trust Company,Iberville,30.291274,-91.236048,LA,70764,"367,203"
Citizens Bank & Trust Company,Iberville,30.291152,-91.236054,LA,70764,"367,203"
Citizens Bank & Trust Company,Iberville,30.277256,-91.233212,LA,70764,"367,203"
Citizens Bank & Trust Company,East Baton Rouge,30.429745,-91.108339,LA,70764,"367,203"
Feliciana Bank & Trust Company,East Feliciana,30.862527,-91.014581,LA,70722,"134,288"
Feliciana Bank & Trust Company,East Feliciana,30.964493,-91.104428,LA,70722,"134,288"
Feliciana Bank & Trust Company,East Feliciana,30.726712,-90.858474,LA,70722,"134,288"
First National Bank Of Louisiana,Acadia,30.210281,-92.37116,LA,70526,"527,823"
First National Bank Of Louisiana,Lafayette,30.177407,-92.044819,LA,70526,"527,823"
First National Bank Of Louisiana,Acadia,30.229227,-92.382029,LA,70526,"527,823"
First National Bank Of Louisiana,Calcasieu,30.227474,-93.341014,LA,70526,"527,823"
First National Bank Of Louisiana,Calcasieu,30.198209,-93.226973,LA,70526,"527,823"
The First National Bank Of Jeanerette,Iberia,30.055201,-91.738403,LA,70544,"311,390"
The First National Bank Of Jeanerette,Iberia,29.914017,-91.666174,LA,70544,"311,390"
The First National Bank Of Jeanerette,St. Mary,29.808996,-91.509812,LA,70544,"311,390"
The First National Bank Of Jeanerette,St. Mary,29.870156,-91.539439,LA,70544,"311,390"
The First National Bank Of Jeanerette,Iberia,29.926883,-91.678503,LA,70544,"311,390"
The First National Bank Of Jeanerette,Iberia,29.991965,-91.804061,LA,70544,"311,390"
The First National Bank Of Jeanerette,St. Mary,29.703084,-91.200332,LA,70544,"311,390"
Colfax Banking Company,Grant,31.619914,-92.556616,LA,71417,"128,781"
Colfax Banking Company,Rapides,31.369721,-92.408991,LA,71417,"128,781"
Colfax Banking Company,Grant,31.519988,-92.708243,LA,71417,"128,781"
Colfax Banking Company,Grant,31.575288,-92.527315,LA,71417,"128,781"
Colfax Banking Company,Grant,31.523464,-92.34456,LA,71417,"128,781"
Sabine State Bank and Trust Company,Allen,30.620569,-92.767596,LA,71449,"1,101,645"
Sabine State Bank and Trust Company,Rapides,30.970463,-92.585135,LA,71449,"1,101,645"
Sabine State Bank and Trust Company,Beauregard,30.786336,-93.538019,LA,71449,"1,101,645"
Sabine State Bank and Trust Company,Sabine,31.782223,-93.694192,LA,71449,"1,101,645"
Sabine State Bank and Trust Company,Sabine,31.536548,-93.536739,LA,71449,"1,101,645"
Sabine State Bank and Trust Company,Vernon,31.136025,-93.26484,LA,71449,"1,101,645"
Sabine State Bank and Trust Company,Red River,32.074696,-93.335491,LA,71449,"1,101,645"
Sabine State Bank and Trust Company,Vernon,31.12167,-93.272057,LA,71449,"1,101,645"
Sabine State Bank and Trust Company,Bienville,32.164676,-92.975708,LA,71449,"1,101,645"
Sabine State Bank and Trust Company,Beauregard,30.87285,-93.28497,LA,71449,"1,101,645"
Sabine State Bank and Trust Company,Rapides,31.134584,-92.362726,LA,71449,"1,101,645"
Sabine State Bank and Trust Company,Grant,31.654386,-92.825112,LA,71449,"1,101,645"
Sabine State Bank and Trust Company,Calcasieu,30.227507,-93.355401,LA,71449,"1,101,645"
Sabine State Bank and Trust Company,Rapides,31.145128,-92.75888,LA,71449,"1,101,645"
Sabine State Bank and Trust Company,Sabine,31.82219,-93.516584,LA,71449,"1,101,645"
Sabine State Bank and Trust Company,Rapides,31.295125,-92.497727,LA,71449,"1,101,645"
Sabine State Bank and Trust Company,Shelby,31.791221,-94.186508,LA,71449,"1,101,645"
Sabine State Bank and Trust Company,Sabine,31.633692,-93.643442,LA,71449,"1,101,645"
Sabine State Bank and Trust Company,Jackson,32.246945,-92.717024,LA,71449,"1,101,645"
Sabine State Bank and Trust Company,Bienville,32.328686,-93.284749,LA,71449,"1,101,645"
Sabine State Bank and Trust Company,Rapides,31.324214,-92.390528,LA,71449,"1,101,645"
Sabine State Bank and Trust Company,Sabine,31.567059,-93.487898,LA,71449,"1,101,645"
Sabine State Bank and Trust Company,Grant,31.515175,-92.71208,LA,71449,"1,101,645"
Sabine State Bank and Trust Company,Avoyelles,30.952602,-92.184071,LA,71449,"1,101,645"
Sabine State Bank and Trust Company,De Soto,32.016913,-93.963066,LA,71449,"1,101,645"
Sabine State Bank and Trust Company,Beauregard,30.846806,-93.278714,LA,71449,"1,101,645"
Sabine State Bank and Trust Company,Allen,30.813653,-92.659427,LA,71449,"1,101,645"
Sabine State Bank and Trust Company,Winn,31.92589,-92.641716,LA,71449,"1,101,645"
Sabine State Bank and Trust Company,Calcasieu,30.18239,-93.249359,LA,71449,"1,101,645"
Sabine State Bank and Trust Company,Sabine,31.346393,-93.843161,LA,71449,"1,101,645"
Sabine State Bank and Trust Company,Rapides,31.276064,-92.48168,LA,71449,"1,101,645"
Sabine State Bank and Trust Company,Rapides,31.047634,-92.516316,LA,71449,"1,101,645"
Sabine State Bank and Trust Company,Newton,30.993771,-93.695057,LA,71449,"1,101,645"
Sabine State Bank and Trust Company,Calcasieu,30.450907,-93.431781,LA,71449,"1,101,645"
Sabine State Bank and Trust Company,Evangeline,30.630124,-92.420398,LA,71449,"1,101,645"
Sabine State Bank and Trust Company,Jasper,30.912014,-93.993252,LA,71449,"1,101,645"
Sabine State Bank and Trust Company,Natchitoches,31.784832,-93.116637,LA,71449,"1,101,645"
Sabine State Bank and Trust Company,Winn,31.93972,-92.653655,LA,71449,"1,101,645"
Sabine State Bank and Trust Company,De Soto,32.037657,-93.706721,LA,71449,"1,101,645"
Sabine State Bank and Trust Company,Rapides,31.010726,-92.290118,LA,71449,"1,101,645"
Sabine State Bank and Trust Company,Sabine,31.450681,-93.456472,LA,71449,"1,101,645"
Sabine State Bank and Trust Company,Rapides,31.415361,-92.411818,LA,71449,"1,101,645"
Sabine State Bank and Trust Company,La Salle,31.683159,-92.13369,LA,71449,"1,101,645"
Sabine State Bank and Trust Company,La Salle,31.864139,-92.295578,LA,71449,"1,101,645"
Sabine State Bank and Trust Company,Natchitoches,31.753019,-93.070937,LA,71449,"1,101,645"
Sabine State Bank and Trust Company,Sabine,31.571437,-93.489133,LA,71449,"1,101,645"
Sabine State Bank and Trust Company,Natchitoches,31.762978,-93.085918,LA,71449,"1,101,645"
Sabine State Bank and Trust Company,Cameron,29.993722,-93.358197,LA,71449,"1,101,645"
Sabine State Bank and Trust Company,Natchitoches,31.698086,-93.298213,LA,71449,"1,101,645"
Sabine State Bank and Trust Company,Sabine,31.27938,-93.778991,LA,71449,"1,101,645"
Sabine State Bank and Trust Company,Vernon,31.068589,-93.177941,LA,71449,"1,101,645"
Bank Of Gueydan,Vermilion,30.025831,-92.513244,LA,70542,"78,118"
First American Bank and Trust,St. Charles,29.978549,-90.2834,LA,70090,"1,045,831"
First American Bank and Trust,Lafourche,29.784324,-90.807359,LA,70090,"1,045,831"
First American Bank and Trust,St. John The Baptist,30.074019,-90.500583,LA,70090,"1,045,831"
First American Bank and Trust,Terrebonne,29.588109,-90.74346,LA,70090,"1,045,831"
First American Bank and Trust,Ascension,30.25668,-90.989124,LA,70090,"1,045,831"
First American Bank and Trust,St. Charles,29.902406,-90.383687,LA,70090,"1,045,831"
First American Bank and Trust,St. Charles,29.944507,-90.389684,LA,70090,"1,045,831"
First American Bank and Trust,Jefferson,29.889923,-90.057211,LA,70090,"1,045,831"
First American Bank and Trust,St. Charles,29.824617,-90.466058,LA,70090,"1,045,831"
First American Bank and Trust,Tangipahoa,30.484573,-90.45698,LA,70090,"1,045,831"
First American Bank and Trust,Jefferson,30.001827,-90.142811,LA,70090,"1,045,831"
First American Bank and Trust,St. James,30.075235,-90.70388,LA,70090,"1,045,831"
First American Bank and Trust,St. James,29.939359,-90.683465,LA,70090,"1,045,831"
First American Bank and Trust,Ascension,30.100705,-90.993071,LA,70090,"1,045,831"
First American Bank and Trust,St. James,30.057148,-90.710712,LA,70090,"1,045,831"
First American Bank and Trust,St. James,29.989451,-90.723292,LA,70090,"1,045,831"
First American Bank and Trust,Jefferson,30.013552,-90.240097,LA,70090,"1,045,831"
First American Bank and Trust,Assumption,29.958414,-91.212913,LA,70090,"1,045,831"
First American Bank and Trust,Jefferson,30.003531,-90.1633,LA,70090,"1,045,831"
First American Bank and Trust,Ascension,30.234956,-90.920613,LA,70090,"1,045,831"
First American Bank and Trust,Lafourche,29.80728,-90.815768,LA,70090,"1,045,831"
First American Bank and Trust,St. Tammany,30.399194,-90.104606,LA,70090,"1,045,831"
First American Bank and Trust,Assumption,29.937267,-91.01942,LA,70090,"1,045,831"
First American Bank and Trust,East Baton Rouge,30.404781,-91.016389,LA,70090,"1,045,831"
First American Bank and Trust,St. Charles,29.999208,-90.413439,LA,70090,"1,045,831"
Concordia Bank & Trust Company,Concordia,31.629849,-91.55273,LA,71373,"580,482"
Concordia Bank & Trust Company,Adams,31.560873,-91.40436,LA,71373,"580,482"
Concordia Bank & Trust Company,Adams,31.55469,-91.385239,LA,71373,"580,482"
Concordia Bank & Trust Company,Wilkinson,31.104141,-91.298574,LA,71373,"580,482"
Concordia Bank & Trust Company,Adams,31.564653,-91.347986,LA,71373,"580,482"
Concordia Bank & Trust Company,Concordia,31.368668,-91.807212,LA,71373,"580,482"
Concordia Bank & Trust Company,East Baton Rouge,30.373839,-91.088546,LA,71373,"580,482"
Concordia Bank & Trust Company,Concordia,31.56868,-91.433837,LA,71373,"580,482"
Bank Of Coushatta,Red River,32.024229,-93.339991,LA,71019,"250,206"
Bank Of Coushatta,Caddo,32.397961,-93.731403,LA,71019,"250,206"
Bank Of Erath,Vermilion,29.868604,-92.049957,LA,70533,"106,394"
Bank Of Erath,Vermilion,29.972182,-92.123618,LA,70533,"106,394"
Bank Of Erath,Vermilion,29.946245,-92.002002,LA,70533,"106,394"
Tensas State Bank,Concordia,31.57131,-91.441904,LA,71357,"155,613"
Tensas State Bank,Tensas,32.072176,-91.243123,LA,71357,"155,613"
Tensas State Bank,Madison,32.384115,-91.181752,LA,71357,"155,613"
Tensas State Bank,Tensas,31.922995,-91.239465,LA,71357,"155,613"
St. Landry Bank and Trust Company,St. Landry,30.494915,-92.416441,LA,70570,"342,472"
St. Landry Bank and Trust Company,St. Landry,30.544602,-92.080336,LA,70570,"342,472"
St. Landry Bank and Trust Company,St. Landry,30.532947,-92.082614,LA,70570,"342,472"
St. Landry Bank and Trust Company,St. Landry,30.520179,-92.082141,LA,70570,"342,472"
St. Landry Bank and Trust Company,St. Landry,30.534952,-92.098617,LA,70570,"342,472"
St. Landry Bank and Trust Company,St. Landry,30.548109,-91.96235,LA,70570,"342,472"
St. Landry Bank and Trust Company,Lafayette,30.172364,-92.067705,LA,70570,"342,472"
St. Landry Bank and Trust Company,Lafayette,30.303816,-92.049385,LA,70570,"342,472"
St. Landry Bank and Trust Company,Lafayette,30.233691,-92.089608,LA,70570,"342,472"
Cottonport Bank,Avoyelles,30.965559,-91.981964,LA,71327,"413,219"
Cottonport Bank,West Baton Rouge,30.386263,-91.244424,LA,71327,"413,219"
Cottonport Bank,Avoyelles,30.988889,-91.829679,LA,71327,"413,219"
Cottonport Bank,Avoyelles,30.956923,-92.18662,LA,71327,"413,219"
Cottonport Bank,Avoyelles,31.125556,-92.068333,LA,71327,"413,219"
Cottonport Bank,Avoyelles,31.223274,-92.162381,LA,71327,"413,219"
Cottonport Bank,Pointe Coupee,30.684213,-91.463669,LA,71327,"413,219"
Cottonport Bank,Avoyelles,31.10604,-91.90716,LA,71327,"413,219"
Cottonport Bank,East Baton Rouge,30.424482,-91.127657,LA,71327,"413,219"
Cottonport Bank,Avoyelles,31.065862,-92.067136,LA,71327,"413,219"
Cottonport Bank,Avoyelles,30.985405,-92.053352,LA,71327,"413,219"
Cottonport Bank,Avoyelles,31.036674,-91.9775,LA,71327,"413,219"
Jackson Parish Bank,Jackson,32.240879,-92.712034,LA,71251,"70,560"
Merchants & Farmers Bank & Trust Company,Calcasieu,30.18903,-93.584429,LA,71446,"430,063"
Merchants & Farmers Bank & Trust Company,Vernon,30.920816,-93.282342,LA,71446,"430,063"
Merchants & Farmers Bank & Trust Company,Vernon,31.109833,-93.271411,LA,71446,"430,063"
Merchants & Farmers Bank & Trust Company,Vernon,31.245147,-93.004648,LA,71446,"430,063"
Merchants & Farmers Bank & Trust Company,Calcasieu,30.183555,-93.249297,LA,71446,"430,063"
Merchants & Farmers Bank & Trust Company,Vernon,31.246512,-93.339283,LA,71446,"430,063"
Merchants & Farmers Bank & Trust Company,Vernon,31.140452,-93.263617,LA,71446,"430,063"
Merchants & Farmers Bank & Trust Company,Calcasieu,30.22976,-93.359456,LA,71446,"430,063"
Marion State Bank,Ouachita,32.546235,-92.248679,LA,71260,"193,026"
Marion State Bank,Union,32.895723,-92.234562,LA,71260,"193,026"
Marion State Bank,Union,32.771452,-92.397084,LA,71260,"193,026"
Marion State Bank,Ouachita,32.725937,-92.082807,LA,71260,"193,026"
Cross Keys Bank,Madison,32.408223,-91.188238,LA,71366,"453,619"
Cross Keys Bank,Ouachita,32.516595,-92.111551,LA,71366,"453,619"
Cross Keys Bank,Ouachita,32.592656,-92.02111,LA,71366,"453,619"
Cross Keys Bank,Richland,32.46277,-91.75948,LA,71366,"453,619"
Cross Keys Bank,Tensas,31.918992,-91.234338,LA,71366,"453,619"
Cross Keys Bank,Ouachita,32.514204,-92.153431,LA,71366,"453,619"
Cross Keys Bank,Caddo,32.45706,-93.74603,LA,71366,"453,619"
Bank Of Winnfield & Trust Company,Winn,31.939189,-92.654054,LA,71483,"151,646"
Bank Of Winnfield & Trust Company,Winn,31.906021,-92.666429,LA,71483,"151,646"
Jonesboro State Bank,Jackson,32.251329,-92.718554,LA,71251,"370,902"
Washington State Bank,St. Landry,30.614988,-92.058591,LA,70589,"228,148"
Washington State Bank,Lafayette,30.175228,-92.042478,LA,70589,"228,148"
Washington State Bank,St. Landry,30.717626,-91.908037,LA,70589,"228,148"
Washington State Bank,St. Landry,30.51565,-92.083211,LA,70589,"228,148"
Washington State Bank,St. Landry,30.493181,-92.416382,LA,70589,"228,148"
Washington State Bank,St. Landry,30.397522,-91.935658,LA,70589,"228,148"
Washington State Bank,St. Landry,30.532142,-92.081168,LA,70589,"228,148"
Farmers-Merchants Bank & Trust Company,St. Martin,30.273549,-91.899317,LA,70517,"368,409"
Farmers-Merchants Bank & Trust Company,Lafayette,30.221482,-92.074008,LA,70517,"368,409"
Farmers-Merchants Bank & Trust Company,St. Martin,30.29044,-91.91206,LA,70517,"368,409"
Farmers-Merchants Bank & Trust Company,Lafayette,30.184972,-92.009731,LA,70517,"368,409"
Farmers-Merchants Bank & Trust Company,St. Martin,30.323952,-91.826778,LA,70517,"368,409"
Farmers-Merchants Bank & Trust Company,St. Martin,30.281794,-91.902586,LA,70517,"368,409"
Farmers-Merchants Bank & Trust Company,St. Martin,30.395599,-91.931049,LA,70517,"368,409"
Peoples Bank,Jackson,32.308583,-92.44778,LA,71226,"86,363"
Bank Of Commerce & Trust Co.,Acadia,30.18709,-92.582584,LA,70526,"356,629"
Bank Of Commerce & Trust Co.,Acadia,30.223065,-92.37861,LA,70526,"356,629"
Bank Of Commerce & Trust Co.,Acadia,30.330965,-92.494229,LA,70526,"356,629"
Bank Of Commerce & Trust Co.,Acadia,30.237925,-92.268731,LA,70526,"356,629"
Bank Of Commerce & Trust Co.,Acadia,30.21247,-92.371103,LA,70526,"356,629"
"Exchange Bank and Trust Company, Natchitoches, Louisiana",Natchitoches,31.751984,-93.082556,LA,71457,"169,793"
"Exchange Bank and Trust Company, Natchitoches, Louisiana",Natchitoches,31.761611,-93.086104,LA,71457,"169,793"
Citizens Progressive Bank,Caldwell,32.051338,-92.109285,LA,71295,"192,502"
Citizens Progressive Bank,Richland,32.471416,-91.758149,LA,71295,"192,502"
Citizens Progressive Bank,Caldwell,35.917613,-76.252837,LA,71295,"192,502"
Citizens Progressive Bank,Franklin,32.174079,-91.725429,LA,71295,"192,502"
Clb The Community Bank,Rapides,31.324214,-92.390528,LA,71343,"220,607"
Clb The Community Bank,Catahoula,31.629227,-91.828679,LA,71343,"220,607"
Clb The Community Bank,La Salle,31.692386,-92.131928,LA,71343,"220,607"
Clb The Community Bank,Lafayette,30.206993,-92.038765,LA,71343,"220,607"
Clb The Community Bank,Catahoula,31.626454,-91.813754,LA,71343,"220,607"
Clb The Community Bank,La Salle,31.839129,-92.137773,LA,71343,"220,607"
Clb The Community Bank,Catahoula,31.815538,-91.899462,LA,71343,"220,607"
Winnsboro State Bank & Trust Company,Richland,32.452548,-91.759209,LA,71295,"255,349"
Winnsboro State Bank & Trust Company,Franklin,32.156305,-91.714581,LA,71295,"255,349"
Winnsboro State Bank & Trust Company,Richland,32.309631,-91.77671,LA,71295,"255,349"
Winnsboro State Bank & Trust Company,Franklin,32.045995,-91.656699,LA,71295,"255,349"
Bank Of Abbeville & Trust Company,Vermilion,29.973982,-92.136725,LA,70510,"192,542"
Bank Of Abbeville & Trust Company,Vermilion,29.97402,-92.135929,LA,70510,"192,542"
Bank Of Abbeville & Trust Company,Vermilion,30.090007,-92.124144,LA,70510,"192,542"
Caldwell Bank & Trust Company,Caldwell,32.105927,-92.07476,LA,71418,"202,704"
Caldwell Bank & Trust Company,Franklin,32.17173,-91.724935,LA,71418,"202,704"
Caldwell Bank & Trust Company,Caldwell,32.03592,-92.122247,LA,71418,"202,704"
Bank Of Sunset and Trust Company,Lafayette,30.146518,-91.961322,LA,70584,"170,837"
Bank Of Sunset and Trust Company,St. Landry,30.41445,-92.039583,LA,70584,"170,837"
Bank Of Sunset and Trust Company,St. Landry,30.411604,-92.064599,LA,70584,"170,837"
Bank Of Sunset and Trust Company,Lafayette,30.180105,-92.023292,LA,70584,"170,837"
Franklin State Bank & Trust Company,Franklin,31.979556,-91.656,LA,71295,"183,636"
Franklin State Bank & Trust Company,Franklin,32.17681,-91.725779,LA,71295,"183,636"
Franklin State Bank & Trust Company,Franklin,32.24811,-91.584379,LA,71295,"183,636"
Franklin State Bank & Trust Company,Franklin,32.164441,-91.715659,LA,71295,"183,636"
City Bank & Trust Co.,Sabine,31.567621,-93.488469,LA,71457,"267,719"
City Bank & Trust Co.,Natchitoches,31.892225,-93.111968,LA,71457,"267,719"
City Bank & Trust Co.,Natchitoches,31.753587,-93.080385,LA,71457,"267,719"
City Bank & Trust Co.,Natchitoches,31.752608,-93.093824,LA,71457,"267,719"
City Bank & Trust Co.,Natchitoches,31.76177,-93.087769,LA,71457,"267,719"
Patterson State Bank,St. Mary,29.690527,-91.314441,LA,70392,"287,260"
Patterson State Bank,St. Mary,29.695106,-91.226116,LA,70392,"287,260"
Patterson State Bank,St. Mary,29.702094,-91.197389,LA,70392,"287,260"
The Evangeline Bank and Trust Company,Rapides,31.282058,-92.461074,LA,70586,"663,080"
The Evangeline Bank and Trust Company,Rapides,31.334018,-92.388411,LA,70586,"663,080"
The Evangeline Bank and Trust Company,Rapides,31.284542,-92.476403,LA,70586,"663,080"
The Evangeline Bank and Trust Company,Rapides,31.367791,-92.409634,LA,70586,"663,080"
The Evangeline Bank and Trust Company,Rapides,31.283248,-92.478759,LA,70586,"663,080"
The Evangeline Bank and Trust Company,Evangeline,30.691057,-92.280827,LA,70586,"663,080"
The Evangeline Bank and Trust Company,Calcasieu,30.181102,-93.24934,LA,70586,"663,080"
The Evangeline Bank and Trust Company,Evangeline,30.691625,-92.28205,LA,70586,"663,080"
The Evangeline Bank and Trust Company,Acadia,30.213991,-92.371986,LA,70586,"663,080"
The Evangeline Bank and Trust Company,St. Landry,30.524628,-92.082082,LA,70586,"663,080"
Origin Bank,Lincoln,32.534529,-92.65215,LA,71227,"6,611,931"
Origin Bank,Hinds,32.399376,-90.137378,LA,71227,"6,611,931"
Origin Bank,Madison,32.44303,-90.149711,LA,71227,"6,611,931"
Origin Bank,Hinds,32.391827,-90.11477,LA,71227,"6,611,931"
Origin Bank,Harris,29.76627,-95.555049,LA,71227,"6,611,931"
Origin Bank,Lafayette,34.363875,-89.518218,LA,71227,"6,611,931"
Origin Bank,Caddo,32.443464,-93.729101,LA,71227,"6,611,931"
Origin Bank,Ouachita,32.536511,-92.078801,LA,71227,"6,611,931"
Origin Bank,Harris,29.723207,-95.38513,LA,71227,"6,611,931"
Origin Bank,Lincoln,32.544008,-92.639602,LA,71227,"6,611,931"
Origin Bank,Harris,29.749501,-95.486143,LA,71227,"6,611,931"
Origin Bank,Ouachita,32.518704,-92.108026,LA,71227,"6,611,931"
Origin Bank,Dallas,32.768469,-96.835628,LA,71227,"6,611,931"
Origin Bank,Madison,32.467932,-90.128117,LA,71227,"6,611,931"
Origin Bank,Morehouse,32.778657,-91.890463,LA,71227,"6,611,931"
Origin Bank,Union,32.774656,-92.40532,LA,71227,"6,611,931"
Origin Bank,Lincoln,32.549299,-92.610403,LA,71227,"6,611,931"
Origin Bank,Rankin,32.343705,-90.058957,LA,71227,"6,611,931"
Origin Bank,Harris,29.753004,-95.409909,LA,71227,"6,611,931"
Origin Bank,Montgomery,30.141276,-95.470054,LA,71227,"6,611,931"
Origin Bank,Ouachita,32.518451,-92.147813,LA,71227,"6,611,931"
Origin Bank,Ouachita,32.537364,-92.103887,LA,71227,"6,611,931"
Origin Bank,Bossier,32.553723,-93.709295,LA,71227,"6,611,931"
Origin Bank,Ouachita,32.518097,-92.331848,LA,71227,"6,611,931"
Origin Bank,Lincoln,32.530579,-92.640188,LA,71227,"6,611,931"
Origin Bank,Lincoln,32.525288,-92.638336,LA,71227,"6,611,931"
Origin Bank,Caddo,32.515791,-93.749301,LA,71227,"6,611,931"
Origin Bank,Tarrant,32.751308,-97.363148,LA,71227,"6,611,931"
Origin Bank,Collin,33.105125,-96.823256,LA,71227,"6,611,931"
Origin Bank,Dallas,32.814762,-96.802322,LA,71227,"6,611,931"
Origin Bank,Collin,33.129583,-96.649211,LA,71227,"6,611,931"
Origin Bank,Lincoln,32.540396,-92.508051,LA,71227,"6,611,931"
Origin Bank,Lincoln,32.540396,-92.508051,LA,71227,"6,611,931"
Origin Bank,Lincoln,32.540396,-92.508051,LA,71227,"6,611,931"
Origin Bank,Union,32.83053,-92.659239,LA,71227,"6,611,931"
Origin Bank,Ouachita,32.51652,-92.185129,LA,71227,"6,611,931"
Origin Bank,Harris,29.724453,-95.418632,LA,71227,"6,611,931"
Origin Bank,Tarrant,32.753276,-97.332517,LA,71227,"6,611,931"
Origin Bank,Tarrant,32.731226,-97.40984,LA,71227,"6,611,931"
Origin Bank,Dallas,32.864809,-96.805572,LA,71227,"6,611,931"
Origin Bank,Harris,29.970643,-95.529469,LA,71227,"6,611,931"
Origin Bank,Dallas,32.911494,-96.958524,LA,71227,"6,611,931"
Origin Bank,Harris,29.692589,-95.413162,LA,71227,"6,611,931"
Origin Bank,Union,32.77001,-92.39257,LA,71227,"6,611,931"
Origin Bank,Harris,29.782326,-95.53602,LA,71227,"6,611,931"
Sicily Island State Bank,Catahoula,31.85122,-91.694441,LA,71368,"66,715"
Sicily Island State Bank,Franklin,32.167325,-91.721805,LA,71368,"66,715"
Community Bank Of Louisiana,De Soto,32.275579,-93.819737,LA,71052,"584,920"
Community Bank Of Louisiana,Caddo,32.385151,-93.734699,LA,71052,"584,920"
Community Bank Of Louisiana,De Soto,32.037277,-93.709222,LA,71052,"584,920"
Community Bank Of Louisiana,De Soto,32.016913,-93.963066,LA,71052,"584,920"
Community Bank Of Louisiana,Caddo,32.482461,-93.750289,LA,71052,"584,920"
Community Bank Of Louisiana,Caddo,32.514403,-93.749639,LA,71052,"584,920"
Community Bank Of Louisiana,Bossier,32.570572,-93.730181,LA,71052,"584,920"
Community Bank Of Louisiana,Sabine,31.568403,-93.483666,LA,71052,"584,920"
Community Bank Of Louisiana,Caddo,32.402198,-93.814599,LA,71052,"584,920"
Community Bank Of Louisiana,De Soto,32.186093,-93.798992,LA,71052,"584,920"
Community Bank Of Louisiana,Bossier,32.460108,-93.662086,LA,71052,"584,920"
First Guaranty Bank,Tangipahoa,30.72633,-90.50762,LA,70401,"2,435,762"
First Guaranty Bank,Claiborne,32.962216,-93.139316,LA,70401,"2,435,762"
First Guaranty Bank,Caddo,32.872535,-93.986498,LA,70401,"2,435,762"
First Guaranty Bank,Avoyelles,31.0684,-91.838152,LA,70401,"2,435,762"
First Guaranty Bank,Avoyelles,30.959425,-92.195507,LA,70401,"2,435,762"
First Guaranty Bank,Lincoln,32.699116,-92.656423,LA,70401,"2,435,762"
First Guaranty Bank,Caddo,32.729977,-93.971375,LA,70401,"2,435,762"
First Guaranty Bank,Rapides,31.2759,-92.47419,LA,70401,"2,435,762"
First Guaranty Bank,Bossier,32.679202,-93.741717,LA,70401,"2,435,762"
First Guaranty Bank,Tarrant,32.7919,-97.217307,LA,70401,"2,435,762"
First Guaranty Bank,Avoyelles,31.12326,-92.06824,LA,70401,"2,435,762"
First Guaranty Bank,Tangipahoa,30.500775,-90.485508,LA,70401,"2,435,762"
First Guaranty Bank,Denton,33.229498,-97.159072,LA,70401,"2,435,762"
First Guaranty Bank,Livingston,30.457724,-90.956561,LA,70401,"2,435,762"
First Guaranty Bank,Avoyelles,31.056654,-92.121617,LA,70401,"2,435,762"
First Guaranty Bank,Livingston,30.486518,-90.86211,LA,70401,"2,435,762"
First Guaranty Bank,Tangipahoa,30.937966,-90.511089,LA,70401,"2,435,762"
First Guaranty Bank,Avoyelles,31.12726,-92.066291,LA,70401,"2,435,762"
First Guaranty Bank,Avoyelles,31.12726,-92.066291,LA,70401,"2,435,762"
First Guaranty Bank,Livingston,30.6007,-90.91313,LA,70401,"2,435,762"
First Guaranty Bank,St. Helena,30.67997,-90.651198,LA,70401,"2,435,762"
First Guaranty Bank,Rapides,31.363387,-92.409781,LA,70401,"2,435,762"
First Guaranty Bank,Tangipahoa,30.504898,-90.457367,LA,70401,"2,435,762"
First Guaranty Bank,Claiborne,32.792779,-93.052868,LA,70401,"2,435,762"
First Guaranty Bank,Bossier,32.57614,-93.714232,LA,70401,"2,435,762"
First Guaranty Bank,Tangipahoa,30.63444,-90.500582,LA,70401,"2,435,762"
First Guaranty Bank,Jefferson Davis,30.224393,-92.659121,LA,70401,"2,435,762"
First Guaranty Bank,Tangipahoa,30.437498,-90.449298,LA,70401,"2,435,762"
First Guaranty Bank,Dallas,32.912665,-96.638087,LA,70401,"2,435,762"
First Guaranty Bank,St. Helena,30.865164,-90.749299,LA,70401,"2,435,762"
First Guaranty Bank,Tangipahoa,30.726673,-90.517758,LA,70401,"2,435,762"
First Guaranty Bank,Tangipahoa,30.936759,-90.51936,LA,70401,"2,435,762"
First Guaranty Bank,Mclennan,31.503515,-97.204701,LA,70401,"2,435,762"
First Guaranty Bank,Vermilion,29.984163,-92.141068,LA,70401,"2,435,762"
First Guaranty Bank,Collin,33.167405,-96.732169,LA,70401,"2,435,762"
First National Bank In Deridder,Beauregard,30.847071,-93.271913,LA,70634,"342,972"
First National Bank In Deridder,Beauregard,30.847062,-93.300405,LA,70634,"342,972"
First National Bank In Deridder,Beauregard,30.847584,-93.286153,LA,70634,"342,972"
First National Bank In Deridder,Calcasieu,30.261392,-93.180542,LA,70634,"342,972"
First National Bank In Deridder,Beauregard,30.847982,-93.286144,LA,70634,"342,972"
First National Bank In Deridder,Calcasieu,30.22721,-93.33416,LA,70634,"342,972"
First National Bank In Deridder,Calcasieu,30.163361,-93.249179,LA,70634,"342,972"
First National Bank In Deridder,Beauregard,30.804525,-93.25152,LA,70634,"342,972"
First National Bank,Ouachita,32.519032,-92.108364,LA,71001,"270,491"
First National Bank,Bienville,32.548878,-92.921718,LA,71001,"270,491"
First National Bank,Bienville,32.548878,-92.921718,LA,71001,"270,491"
First National Bank,Lincoln,32.550084,-92.640422,LA,71001,"270,491"
First National Bank,Lincoln,32.530449,-92.639272,LA,71001,"270,491"
First National Bank,Lincoln,32.551164,-92.609635,LA,71001,"270,491"
First National Bank,Union,32.773371,-92.40263,LA,71001,"270,491"
First National Bank,Ouachita,32.517346,-92.161798,LA,71001,"270,491"
Rayne State Bank & Trust Company,Acadia,30.234601,-92.269457,LA,70578,"478,692"
Rayne State Bank & Trust Company,Acadia,30.235116,-92.268883,LA,70578,"478,692"
Rayne State Bank & Trust Company,Lafayette,30.184178,-92.016283,LA,70578,"478,692"
Rayne State Bank & Trust Company,Lafayette,30.219312,-92.021577,LA,70578,"478,692"
Rayne State Bank & Trust Company,Lafayette,30.303432,-92.049378,LA,70578,"478,692"
Rayne State Bank & Trust Company,Lafayette,30.19825,-92.070268,LA,70578,"478,692"
Rayne State Bank & Trust Company,Acadia,30.40499,-92.215687,LA,70578,"478,692"
Farmers State Bank & Trust Co.,Acadia,30.407973,-92.219293,LA,70525,"137,743"
Farmers State Bank & Trust Co.,Lafayette,30.18119,-92.143333,LA,70525,"137,743"
Farmers State Bank & Trust Co.,St. Landry,30.418787,-92.047387,LA,70525,"137,743"
Farmers State Bank & Trust Co.,Acadia,30.403138,-92.214921,LA,70525,"137,743"
Farmers State Bank & Trust Co.,Lafayette,30.102048,-91.993243,LA,70525,"137,743"
Citizens Bank & Trust Company,St. Tammany,30.478343,-90.03718,LA,70433,"139,405"
Citizens Bank & Trust Company,St. Tammany,30.471333,-90.096561,LA,70433,"139,405"
Citizens Bank & Trust Company,St. Tammany,30.371972,-90.078509,LA,70433,"139,405"
Citizens Bank & Trust Company,St. Tammany,30.56049,-90.099168,LA,70433,"139,405"
Citizens Bank & Trust Company,St. Tammany,30.56049,-90.099168,LA,70433,"139,405"
Metairie Bank & Trust Company,St. Tammany,30.470424,-90.11278,LA,70001,"466,184"
Metairie Bank & Trust Company,Jefferson,29.97566,-90.158979,LA,70001,"466,184"
Metairie Bank & Trust Company,Jefferson,29.963319,-90.162842,LA,70001,"466,184"
Metairie Bank & Trust Company,Jefferson,30.004125,-90.173547,LA,70001,"466,184"
Metairie Bank & Trust Company,Jefferson,30.015986,-90.187801,LA,70001,"466,184"
Metairie Bank & Trust Company,St. Tammany,30.398305,-90.102404,LA,70001,"466,184"
Metairie Bank & Trust Company,Jefferson,29.987849,-90.130768,LA,70001,"466,184"
Metairie Bank & Trust Company,Jefferson,30.005116,-90.219636,LA,70001,"466,184"
Metairie Bank & Trust Company,Jefferson,29.978638,-90.222451,LA,70001,"466,184"
Jd Bank,Jefferson Davis,30.237716,-92.821686,LA,70546,"1,022,723"
Jd Bank,Calcasieu,30.329661,-93.2134,LA,70546,"1,022,723"
Jd Bank,Evangeline,30.694619,-92.285399,LA,70546,"1,022,723"
Jd Bank,Calcasieu,30.2529,-93.258143,LA,70546,"1,022,723"
Jd Bank,St. Landry,30.517954,-92.082671,LA,70546,"1,022,723"
Jd Bank,Calcasieu,30.227453,-93.212573,LA,70546,"1,022,723"
Jd Bank,Calcasieu,30.227457,-93.343756,LA,70546,"1,022,723"
Jd Bank,St. Landry,30.492905,-92.417559,LA,70546,"1,022,723"
Jd Bank,Lafayette,30.175061,-92.007341,LA,70546,"1,022,723"
Jd Bank,Jefferson Davis,30.079458,-92.678704,LA,70546,"1,022,723"
Jd Bank,Jefferson Davis,30.220584,-92.662437,LA,70546,"1,022,723"
Jd Bank,Calcasieu,30.18334,-93.218561,LA,70546,"1,022,723"
Jd Bank,Jefferson Davis,30.233923,-92.654371,LA,70546,"1,022,723"
Jd Bank,Calcasieu,30.232675,-93.012247,LA,70546,"1,022,723"
Jd Bank,Allen,30.488176,-92.848707,LA,70546,"1,022,723"
Jd Bank,Calcasieu,30.177276,-93.249258,LA,70546,"1,022,723"
Jd Bank,Calcasieu,30.174169,-93.376031,LA,70546,"1,022,723"
Jd Bank,Calcasieu,30.168425,-93.283057,LA,70546,"1,022,723"
Jd Bank,Calcasieu,30.258,-93.12327,LA,70546,"1,022,723"
Jd Bank,Jefferson Davis,30.216931,-92.659178,LA,70546,"1,022,723"
Jd Bank,Iberia,30.00676,-91.796275,LA,70546,"1,022,723"
Jd Bank,Calcasieu,30.225809,-93.213379,LA,70546,"1,022,723"
Jd Bank,Evangeline,30.630023,-92.419314,LA,70546,"1,022,723"
Gibsland Bank & Trust Company,Bienville,32.543788,-93.052687,LA,71028,"476,276"
Gibsland Bank & Trust Company,Webster,32.625937,-93.251001,LA,71028,"476,276"
Gibsland Bank & Trust Company,Claiborne,32.626087,-93.006219,LA,71028,"476,276"
Gibsland Bank & Trust Company,Bienville,32.549848,-92.920223,LA,71028,"476,276"
Gibsland Bank & Trust Company,Webster,32.539978,-93.295829,LA,71028,"476,276"
Gibsland Bank & Trust Company,Caddo,32.478126,-93.746101,LA,71028,"476,276"
Gibsland Bank & Trust Company,Bossier,32.536337,-93.663155,LA,71028,"476,276"
Gibsland Bank & Trust Company,Claiborne,32.797725,-93.055544,LA,71028,"476,276"
Gibsland Bank & Trust Company,Caddo,32.383762,-93.81798,LA,71028,"476,276"
State Bank & Trust Company,Lafourche,29.382437,-90.259881,LA,70357,"126,094"
State Bank & Trust Company,Lafourche,29.6994,-90.558915,LA,70357,"126,094"
State Bank & Trust Company,Lafourche,29.57154,-90.3848,LA,70357,"126,094"
State Bank & Trust Company,Lafourche,29.556007,-90.294396,LA,70357,"126,094"
M C Bank & Trust Company,St. Mary,29.662415,-91.105267,LA,70380,"333,181"
M C Bank & Trust Company,Lafayette,30.176612,-92.00264,LA,70380,"333,181"
M C Bank & Trust Company,St. Mary,29.703423,-91.197937,LA,70380,"333,181"
M C Bank & Trust Company,Orleans,29.951875,-90.069952,LA,70380,"333,181"
M C Bank & Trust Company,Lafayette,30.101843,-91.990666,LA,70380,"333,181"
M C Bank & Trust Company,St. Mary,29.69001,-91.264138,LA,70380,"333,181"
Simmesport State Bank,Avoyelles,31.093251,-92.058599,LA,71369,"122,098"
Simmesport State Bank,Avoyelles,30.931193,-91.859179,LA,71369,"122,098"
Basile State Bank,Evangeline,30.485978,-92.592081,LA,70515,"64,816"
Basile State Bank,St. Landry,30.487481,-92.422963,LA,70515,"64,816"
Guaranty Bank and Trust Company,West Baton Rouge,30.461417,-91.249539,LA,70760,"244,391"
Guaranty Bank and Trust Company,Iberville,30.489934,-91.509529,LA,70760,"244,391"
Guaranty Bank and Trust Company,Iberville,30.420998,-91.436514,LA,70760,"244,391"
Guaranty Bank and Trust Company,Pointe Coupee,30.694457,-91.434333,LA,70760,"244,391"
Guaranty Bank and Trust Company,Pointe Coupee,30.557333,-91.55639,LA,70760,"244,391"
Guaranty Bank and Trust Company,East Baton Rouge,30.64943,-91.133836,LA,70760,"244,391"
Vermilion Bank & Trust Company,Vermilion,30.025861,-92.512481,LA,70548,"126,266"
Vermilion Bank & Trust Company,Vermilion,30.001064,-92.284499,LA,70548,"126,266"
Vermilion Bank & Trust Company,Vermilion,30.000722,-92.29414,LA,70548,"126,266"
Bank Of Louisiana,Orleans,29.951444,-90.069981,LA,70130,"85,462"
Bank Of Louisiana,St. Tammany,30.260828,-89.786065,LA,70130,"85,462"
Bank Of Louisiana,Jefferson,30.01055,-90.159258,LA,70130,"85,462"
Bank Of Louisiana,Jefferson,29.879178,-90.034973,LA,70130,"85,462"
Bank Of Louisiana,St. Tammany,30.284786,-89.77385,LA,70130,"85,462"
American Bank & Trust Company,St. Landry,30.517513,-92.185919,LA,70570,"208,932"
American Bank & Trust Company,Lafayette,30.177595,-92.045025,LA,70570,"208,932"
American Bank & Trust Company,Lafayette,30.258695,-92.006484,LA,70570,"208,932"
American Bank & Trust Company,St. Landry,30.532837,-92.08095,LA,70570,"208,932"
American Bank & Trust Company,St. Landry,30.532816,-92.080784,LA,70570,"208,932"
American Bank & Trust Company,St. Landry,30.519662,-92.076831,LA,70570,"208,932"
American Bank & Trust Company,St. Landry,30.542085,-91.756759,LA,70570,"208,932"
American Bank & Trust Company,St. Landry,30.525825,-91.857602,LA,70570,"208,932"
United Community Bank,East Baton Rouge,30.413228,-91.05633,LA,70394,"600,018"
United Community Bank,Terrebonne,29.588539,-90.743213,LA,70394,"600,018"
United Community Bank,Ascension,30.247913,-90.920796,LA,70394,"600,018"
United Community Bank,Lafourche,29.563215,-90.362052,LA,70394,"600,018"
United Community Bank,Ascension,30.327067,-90.982099,LA,70394,"600,018"
United Community Bank,Lafourche,29.739079,-90.438889,LA,70394,"600,018"
United Community Bank,St. John The Baptist,30.085896,-90.502809,LA,70394,"600,018"
United Community Bank,Lafourche,29.386585,-90.266721,LA,70394,"600,018"
United Community Bank,Ascension,30.177121,-90.920215,LA,70394,"600,018"
United Community Bank,Lafourche,29.800118,-90.817834,LA,70394,"600,018"
American Bank & Trust Company,Red River,32.021744,-93.34185,LA,70433,"219,441"
American Bank & Trust Company,St. Tammany,30.498104,-90.106004,LA,70433,"219,441"
American Bank & Trust Company,Orleans,29.900626,-90.029237,LA,70433,"219,441"
American Bank & Trust Company,St. Tammany,30.373439,-90.092147,LA,70433,"219,441"
American Bank & Trust Company,Tangipahoa,30.480495,-90.484203,LA,70433,"219,441"
Hodge Bank & Trust Company,Jackson,32.268972,-92.72428,LA,71247,"76,368"
"Guaranty Bank & Trust Company Of Delhi, Louisiana",West Carroll,32.861034,-91.390555,LA,71232,"320,949"
"Guaranty Bank & Trust Company Of Delhi, Louisiana",Ouachita,32.521831,-92.11088,LA,71232,"320,949"
"Guaranty Bank & Trust Company Of Delhi, Louisiana",Madison,32.384129,-91.181577,LA,71232,"320,949"
"Guaranty Bank & Trust Company Of Delhi, Louisiana",Richland,32.480542,-91.860653,LA,71232,"320,949"
"Guaranty Bank & Trust Company Of Delhi, Louisiana",Ouachita,32.516426,-92.186368,LA,71232,"320,949"
"Guaranty Bank & Trust Company Of Delhi, Louisiana",Richland,32.452367,-91.492956,LA,71232,"320,949"
"Guaranty Bank & Trust Company Of Delhi, Louisiana",Ouachita,32.650477,-92.055433,LA,71232,"320,949"
"Guaranty Bank & Trust Company Of Delhi, Louisiana",Richland,32.470632,-91.759338,LA,71232,"320,949"
"Guaranty Bank & Trust Company Of Delhi, Louisiana",West Carroll,32.596678,-91.481317,LA,71232,"320,949"
"Guaranty Bank & Trust Company Of Delhi, Louisiana",Richland,32.455823,-91.494661,LA,71232,"320,949"
"Citizens Bank & Trust Company Of Vivian, Louisiana",Caddo,32.729526,-93.971169,LA,71082,"157,884"
"Citizens Bank & Trust Company Of Vivian, Louisiana",Caddo,32.871926,-93.98789,LA,71082,"157,884"
"Citizens Bank & Trust Company Of Vivian, Louisiana",Caddo,32.598996,-93.837686,LA,71082,"157,884"
"Citizens Bank & Trust Company Of Vivian, Louisiana",Caddo,32.449652,-93.722006,LA,71082,"157,884"
South Lafourche Bank & Trust Company,Lafourche,29.584993,-90.434184,LA,70373,"151,573"
South Lafourche Bank & Trust Company,Lafourche,29.567454,-90.372419,LA,70373,"151,573"
South Lafourche Bank & Trust Company,Lafourche,29.465824,-90.312182,LA,70373,"151,573"
South Lafourche Bank & Trust Company,Lafourche,29.36338,-90.255213,LA,70373,"151,573"
South Lafourche Bank & Trust Company,Lafourche,29.51662,-90.333193,LA,70373,"151,573"
Plaquemine Bank & Trust Company,Iberville,30.206344,-91.327396,LA,70764,"180,094"
Gulf Coast Bank,Lafayette,30.171924,-92.030654,LA,70510,"465,748"
Gulf Coast Bank,Vermilion,29.972705,-92.135897,LA,70510,"465,748"
Gulf Coast Bank,Lafayette,30.109202,-92.013899,LA,70510,"465,748"
Gulf Coast Bank,Vermilion,29.970411,-92.096307,LA,70510,"465,748"
Gulf Coast Bank,Vermilion,29.951889,-91.990188,LA,70510,"465,748"
Gulf Coast Bank,Lafayette,30.320536,-92.032769,LA,70510,"465,748"
Gulf Coast Bank,Lafayette,30.168745,-92.063231,LA,70510,"465,748"
Gulf Coast Bank,Lafayette,30.19523,-92.057711,LA,70510,"465,748"
Gulf Coast Bank,Vermilion,29.958845,-92.040529,LA,70510,"465,748"
Gulf Coast Bank,Vermilion,30.081342,-92.145507,LA,70510,"465,748"
Southern Heritage Bank,La Salle,31.839129,-92.137773,LA,71343,"334,572"
Southern Heritage Bank,La Salle,31.687459,-92.137717,LA,71343,"334,572"
Southern Heritage Bank,Rapides,31.334409,-92.385722,LA,71343,"334,572"
Southern Heritage Bank,Rapides,31.324214,-92.390528,LA,71343,"334,572"
Southern Heritage Bank,Rapides,31.27255,-92.483789,LA,71343,"334,572"
Southern Heritage Bank,Rapides,31.295275,-92.507282,LA,71343,"334,572"
Southern Heritage Bank,Rapides,31.312364,-92.447163,LA,71343,"334,572"
Southern Heritage Bank,La Salle,31.821802,-92.326206,LA,71343,"334,572"
Southern Heritage Bank,Catahoula,31.629562,-91.824259,LA,71343,"334,572"
Southern Heritage Bank,Catahoula,31.771139,-91.821142,LA,71343,"334,572"
Liberty Bank and Trust Company,Wyandotte,39.118754,-94.621449,LA,70127,"737,417"
Liberty Bank and Trust Company,Orleans,29.976335,-90.06753,LA,70127,"737,417"
Liberty Bank and Trust Company,Orleans,29.976087,-90.067728,LA,70127,"737,417"
Liberty Bank and Trust Company,Hinds,32.327787,-90.196993,LA,70127,"737,417"
Liberty Bank and Trust Company,Orleans,29.965697,-90.087814,LA,70127,"737,417"
Liberty Bank and Trust Company,Orleans,29.996863,-90.061513,LA,70127,"737,417"
Liberty Bank and Trust Company,Macon,32.424645,-85.692998,LA,70127,"737,417"
Liberty Bank and Trust Company,Orleans,29.924602,-90.021168,LA,70127,"737,417"
Liberty Bank and Trust Company,Montgomery,32.35907,-86.238771,LA,70127,"737,417"
Liberty Bank and Trust Company,Jackson,39.041189,-94.572955,LA,70127,"737,417"
Liberty Bank and Trust Company,East Baton Rouge,30.415718,-91.141491,LA,70127,"737,417"
Liberty Bank and Trust Company,Orleans,30.026437,-90.052331,LA,70127,"737,417"
Liberty Bank and Trust Company,Orleans,30.031029,-89.980722,LA,70127,"737,417"
Liberty Bank and Trust Company,Orleans,30.034464,-89.996302,LA,70127,"737,417"
Liberty Bank and Trust Company,Cook,41.864776,-87.814312,LA,70127,"737,417"
Liberty Bank and Trust Company,East Baton Rouge,30.519914,-91.178698,LA,70127,"737,417"
Liberty Bank and Trust Company,Jefferson,38.24334,-85.772664,LA,70127,"737,417"
Liberty Bank and Trust Company,Wayne,42.383408,-83.082149,LA,70127,"737,417"
Bank Of Oak Ridge,Morehouse,32.612968,-91.773576,LA,71264,"67,903"
Bank Of Oak Ridge,Ouachita,32.526224,-92.100598,LA,71264,"67,903"
First National Bank Usa,St. Charles,29.902293,-90.384345,LA,70039,"160,464"
First National Bank Usa,St. John The Baptist,30.083291,-90.502536,LA,70039,"160,464"
Progressive Bank,Ouachita,32.529,-92.09401,LA,71201,"735,289"
Progressive Bank,Ouachita,32.525054,-92.110583,LA,71201,"735,289"
Progressive Bank,Bossier,32.559976,-93.710613,LA,71201,"735,289"
Progressive Bank,Franklin,32.173116,-91.723393,LA,71201,"735,289"
Progressive Bank,Ouachita,32.517266,-92.159462,LA,71201,"735,289"
Progressive Bank,Caddo,32.457007,-93.722088,LA,71201,"735,289"
Progressive Bank,Ouachita,32.505113,-92.12745,LA,71201,"735,289"
Progressive Bank,Caddo,32.425753,-93.723905,LA,71201,"735,289"
Progressive Bank,Caddo,32.397966,-93.730041,LA,71201,"735,289"
Bank Of St. Francisville,West Feliciana,30.779713,-91.375127,LA,70775,"179,124"
Peoples Bank and Trust Company Of Pointe Coupee Parish,East Baton Rouge,30.543173,-91.027265,LA,70760,"327,591"
Peoples Bank and Trust Company Of Pointe Coupee Parish,Pointe Coupee,30.559302,-91.555653,LA,70760,"327,591"
Peoples Bank and Trust Company Of Pointe Coupee Parish,East Baton Rouge,30.392425,-91.037201,LA,70760,"327,591"
Peoples Bank and Trust Company Of Pointe Coupee Parish,Pointe Coupee,30.686436,-91.465652,LA,70760,"327,591"
South Louisiana Bank,Terrebonne,29.576003,-90.687483,LA,70360,"589,683"
South Louisiana Bank,Terrebonne,29.599914,-90.745818,LA,70360,"589,683"
South Louisiana Bank,Lafourche,29.647157,-90.68963,LA,70360,"589,683"
South Louisiana Bank,Terrebonne,29.614431,-90.785612,LA,70360,"589,683"
South Louisiana Bank,Terrebonne,29.553932,-90.606676,LA,70360,"589,683"
South Louisiana Bank,Terrebonne,29.62332,-90.74964,LA,70360,"589,683"
South Louisiana Bank,Lafourche,29.791336,-90.821075,LA,70360,"589,683"
Mississippi River Bank,Plaquemines,29.525592,-89.75263,LA,70037,"118,455"
Mississippi River Bank,Plaquemines,29.851852,-89.986936,LA,70037,"118,455"
Progressive National Bank,De Soto,31.975903,-93.997751,LA,71052,"85,818"
Progressive National Bank,De Soto,32.035495,-93.710913,LA,71052,"85,818"
Progressive National Bank,Caddo,32.402246,-93.809733,LA,71052,"85,818"
Progressive National Bank,De Soto,32.282335,-93.822282,LA,71052,"85,818"
Progressive National Bank,De Soto,32.118912,-93.826086,LA,71052,"85,818"
First National Bank Of Benton,Bossier,32.697813,-93.740018,LA,71006,"66,743"
First National Banker's Bank,Madison,32.426432,-90.153354,LA,70809,"966,359"
First National Banker's Bank,Pulaski,34.744524,-92.274165,LA,70809,"966,359"
First National Banker's Bank,Jefferson,33.458041,-86.797831,LA,70809,"966,359"
First National Banker's Bank,Seminole,28.760886,-81.358187,LA,70809,"966,359"
First National Banker's Bank,East Baton Rouge,30.4196,-91.102301,LA,70809,"966,359"
"Citizens National Bank, N.A.",Bossier,32.905872,-93.701664,LA,71111,"1,203,310"
"Citizens National Bank, N.A.",Webster,32.624044,-93.254989,LA,71111,"1,203,310"
"Citizens National Bank, N.A.",Caddo,32.443349,-93.721997,LA,71111,"1,203,310"
"Citizens National Bank, N.A.",Bossier,32.449603,-93.643202,LA,71111,"1,203,310"
"Citizens National Bank, N.A.",Webster,33.005952,-93.461674,LA,71111,"1,203,310"
"Citizens National Bank, N.A.",Bossier,32.538398,-93.721416,LA,71111,"1,203,310"
"Citizens National Bank, N.A.",Bossier,32.528586,-93.711792,LA,71111,"1,203,310"
"Citizens National Bank, N.A.",Caddo,32.514209,-93.751143,LA,71111,"1,203,310"
"Citizens National Bank, N.A.",Bossier,32.534773,-93.496739,LA,71111,"1,203,310"
"Citizens National Bank, N.A.",Caddo,32.408881,-93.738564,LA,71111,"1,203,310"
"Citizens National Bank, N.A.",Caddo,32.399913,-93.806084,LA,71111,"1,203,310"
"Citizens National Bank, N.A.",De Soto,32.005517,-93.665796,LA,71111,"1,203,310"
"Citizens National Bank, N.A.",Claiborne,32.910201,-93.091252,LA,71111,"1,203,310"
Delta Bank,Concordia,31.571448,-91.442398,LA,71373,"356,077"
Delta Bank,Adams,31.517326,-91.385973,LA,71373,"356,077"
Delta Bank,Concordia,31.629781,-91.553878,LA,71373,"356,077"
Delta Bank,Madison,32.405905,-91.188259,LA,71373,"356,077"
Delta Bank,East Carroll,32.806253,-91.173439,LA,71373,"356,077"
Home Federal Bank,Caddo,32.449017,-93.720258,LA,71105,"518,919"
Home Federal Bank,Bossier,32.555187,-93.720751,LA,71105,"518,919"
Home Federal Bank,Caddo,32.600978,-93.841638,LA,71105,"518,919"
Home Federal Bank,Caddo,32.51267,-93.746262,LA,71105,"518,919"
Home Federal Bank,Caddo,32.449159,-93.721564,LA,71105,"518,919"
Home Federal Bank,Bossier,32.545794,-93.634886,LA,71105,"518,919"
Home Federal Bank,Caddo,32.45462,-93.749162,LA,71105,"518,919"
Home Federal Bank,Caddo,32.40065,-93.806861,LA,71105,"518,919"
Fifth District Savings Bank,Jefferson,29.897106,-90.138102,LA,70114,"449,280"
Fifth District Savings Bank,Jefferson,29.85824,-90.101554,LA,70114,"449,280"
Fifth District Savings Bank,Orleans,29.921456,-90.014099,LA,70114,"449,280"
Fifth District Savings Bank,Orleans,30.005415,-90.110623,LA,70114,"449,280"
Fifth District Savings Bank,Jefferson,30.016113,-90.186631,LA,70114,"449,280"
Fifth District Savings Bank,Jefferson,29.893198,-90.098249,LA,70114,"449,280"
Fifth District Savings Bank,St. Tammany,30.442819,-90.143844,LA,70114,"449,280"
Mutual Savings and Loan Association,Jefferson,30.002904,-90.185221,LA,70006,"45,004"
Mutual Savings and Loan Association,St. Tammany,30.419207,-90.04353,LA,70006,"45,004"
Hibernia Bank,Orleans,29.951273,-90.071472,LA,70130,"207,526"
Hibernia Bank,Jefferson,30.005937,-90.20295,LA,70130,"207,526"
Hibernia Bank,Orleans,29.943941,-90.133516,LA,70130,"207,526"
Hibernia Bank,Jefferson,29.938127,-90.212404,LA,70130,"207,526"
Hibernia Bank,Jefferson,29.988944,-90.132324,LA,70130,"207,526"
"Home Bank, National Association",Lafayette,30.140398,-91.985116,LA,70508,"2,631,874"
"Home Bank, National Association",Lafayette,30.219615,-92.017475,LA,70508,"2,631,874"
"Home Bank, National Association",Jefferson Davis,30.237688,-92.821559,LA,70508,"2,631,874"
"Home Bank, National Association",Lafayette,30.237236,-91.992576,LA,70508,"2,631,874"
"Home Bank, National Association",St. Martin,30.214778,-91.83164,LA,70508,"2,631,874"
"Home Bank, National Association",East Baton Rouge,30.36669,-91.104926,LA,70508,"2,631,874"
"Home Bank, National Association",Jefferson,29.95976,-90.183492,LA,70508,"2,631,874"
"Home Bank, National Association",Acadia,30.40563,-92.217066,LA,70508,"2,631,874"
"Home Bank, National Association",Lafayette,30.140697,-91.952456,LA,70508,"2,631,874"
"Home Bank, National Association",Lafayette,30.170062,-92.03892,LA,70508,"2,631,874"
"Home Bank, National Association",Jefferson Davis,30.224477,-92.657836,LA,70508,"2,631,874"
"Home Bank, National Association",St. Tammany,30.386707,-90.090464,LA,70508,"2,631,874"
"Home Bank, National Association",Jefferson,30.00152,-90.140581,LA,70508,"2,631,874"
"Home Bank, National Association",St. Tammany,30.49686,-90.104973,LA,70508,"2,631,874"
"Home Bank, National Association",Jefferson,29.88787,-90.056701,LA,70508,"2,631,874"
"Home Bank, National Association",St. Tammany,30.286027,-89.738761,LA,70508,"2,631,874"
"Home Bank, National Association",Warren,32.323766,-90.865548,LA,70508,"2,631,874"
"Home Bank, National Association",Lafayette,30.206756,-92.039401,LA,70508,"2,631,874"
"Home Bank, National Association",St. Martin,30.121588,-91.829745,LA,70508,"2,631,874"
"Home Bank, National Association",East Baton Rouge,30.421206,-91.051675,LA,70508,"2,631,874"
"Home Bank, National Association",Acadia,30.230395,-92.375244,LA,70508,"2,631,874"
"Home Bank, National Association",Orleans,29.973379,-90.098573,LA,70508,"2,631,874"
"Home Bank, National Association",Lafayette,30.19639,-92.057701,LA,70508,"2,631,874"
"Home Bank, National Association",Jefferson,30.017654,-90.19872,LA,70508,"2,631,874"
"Home Bank, National Association",St. Martin,30.211282,-91.714185,LA,70508,"2,631,874"
"Home Bank, National Association",Adams,31.559554,-91.402432,LA,70508,"2,631,874"
"Home Bank, National Association",Lafayette,30.146658,-92.034676,LA,70508,"2,631,874"
"Home Bank, National Association",Lafayette,30.182596,-92.017544,LA,70508,"2,631,874"
"Home Bank, National Association",East Baton Rouge,30.424831,-91.135044,LA,70508,"2,631,874"
"Home Bank, National Association",Orleans,29.921002,-90.115411,LA,70508,"2,631,874"
"Home Bank, National Association",Lafayette,30.233288,-92.087685,LA,70508,"2,631,874"
"Home Bank, National Association",St. Tammany,30.444056,-90.14269,LA,70508,"2,631,874"
"Home Bank, National Association",St. Tammany,30.461107,-90.04072,LA,70508,"2,631,874"
"Home Bank, National Association",Lafayette,30.321679,-92.041034,LA,70508,"2,631,874"
"Home Bank, National Association",St. Tammany,30.638005,-90.191141,LA,70508,"2,631,874"
"Home Bank, National Association",East Baton Rouge,30.362904,-91.014152,LA,70508,"2,631,874"
"Home Bank, National Association",Jefferson Davis,30.468544,-92.696366,LA,70508,"2,631,874"
"Home Bank, National Association",Adams,31.545588,-91.326454,LA,70508,"2,631,874"
"Home Bank, National Association",Adams,31.545588,-91.326454,LA,70508,"2,631,874"
"Home Bank, National Association",Lafayette,30.25736,-92.122298,LA,70508,"2,631,874"
Iberiabank,Orange,28.625743,-81.36525,LA,70501,"34,581,511"
Iberiabank,Jefferson,33.50339,-86.757009,LA,70501,"34,581,511"
Iberiabank,Benton,36.365247,-94.091351,LA,70501,"34,581,511"
Iberiabank,Cherokee,34.091709,-84.508552,LA,70501,"34,581,511"
Iberiabank,Monroe,24.566607,-81.767958,LA,70501,"34,581,511"
Iberiabank,Harris,29.783285,-95.536098,LA,70501,"34,581,511"
Iberiabank,St. Mary,29.702619,-91.203019,LA,70501,"34,581,511"
Iberiabank,St. Mary,29.687195,-91.262292,LA,70501,"34,581,511"
Iberiabank,Fulton,34.042624,-84.328542,LA,70501,"34,581,511"
Iberiabank,Shelby,35.15289,-89.794581,LA,70501,"34,581,511"
Iberiabank,Miami-Dade,25.783897,-80.237015,LA,70501,"34,581,511"
Iberiabank,Cameron,30.0543,-93.213008,LA,70501,"34,581,511"
Iberiabank,Monroe,24.550332,-81.798594,LA,70501,"34,581,511"
Iberiabank,Pulaski,34.770395,-92.393443,LA,70501,"34,581,511"
Iberiabank,Harris,29.731788,-95.434731,LA,70501,"34,581,511"
Iberiabank,Greenville,34.848039,-82.398327,LA,70501,"34,581,511"
Iberiabank,Lafayette,30.140726,-91.946367,LA,70501,"34,581,511"
Iberiabank,Pulaski,34.747557,-92.272866,LA,70501,"34,581,511"
Iberiabank,Miami-Dade,25.763028,-80.19137,LA,70501,"34,581,511"
Iberiabank,Iberia,29.983155,-91.814695,LA,70501,"34,581,511"
Iberiabank,Broward,26.107531,-80.143062,LA,70501,"34,581,511"
Iberiabank,Lawrence,36.069363,-90.9583,LA,70501,"34,581,511"
Iberiabank,Pulaski,34.797824,-92.414238,LA,70501,"34,581,511"
Iberiabank,East Baton Rouge,30.383994,-91.040993,LA,70501,"34,581,511"
Iberiabank,Shelby,35.137056,-90.018243,LA,70501,"34,581,511"
Iberiabank,Ouachita,32.525551,-92.104287,LA,70501,"34,581,511"
Iberiabank,Jefferson,33.608854,-86.796811,LA,70501,"34,581,511"
Iberiabank,Palm Beach,26.93423,-80.119203,LA,70501,"34,581,511"
Iberiabank,Lincoln,32.541807,-92.639454,LA,70501,"34,581,511"
Iberiabank,Duval,30.326785,-81.660409,LA,70501,"34,581,511"
Iberiabank,Orleans,29.941499,-90.078974,LA,70501,"34,581,511"
Iberiabank,St. Martin,30.285414,-91.90645,LA,70501,"34,581,511"
Iberiabank,East Baton Rouge,30.40804,-91.02107,LA,70501,"34,581,511"
Iberiabank,Orange,28.685529,-81.534268,LA,70501,"34,581,511"
Iberiabank,Guilford,36.092036,-79.81515,LA,70501,"34,581,511"
Iberiabank,Mobile,30.688505,-88.123444,LA,70501,"34,581,511"
Iberiabank,Broward,26.117496,-80.263204,LA,70501,"34,581,511"
Iberiabank,Miami-Dade,25.787424,-80.14108,LA,70501,"34,581,511"
Iberiabank,Miami-Dade,25.704607,-80.283083,LA,70501,"34,581,511"
Iberiabank,Harris,29.697358,-95.123586,LA,70501,"34,581,511"
Iberiabank,Palm Beach,26.725011,-80.081704,LA,70501,"34,581,511"
Iberiabank,Craighead,35.821249,-90.686745,LA,70501,"34,581,511"
Iberiabank,East Baton Rouge,30.447938,-91.188227,LA,70501,"34,581,511"
Iberiabank,Jefferson,29.889168,-90.057098,LA,70501,"34,581,511"
Iberiabank,Palm Beach,26.705534,-80.036142,LA,70501,"34,581,511"
Iberiabank,Palm Beach,26.365312,-80.122093,LA,70501,"34,581,511"
Iberiabank,Jefferson,29.877778,-90.098621,LA,70501,"34,581,511"
Iberiabank,Miami-Dade,25.949646,-80.14252,LA,70501,"34,581,511"
Iberiabank,Orange,28.568941,-81.389369,LA,70501,"34,581,511"
Iberiabank,Collier,26.211527,-81.780088,LA,70501,"34,581,511"
Iberiabank,Miami-Dade,25.794657,-80.206972,LA,70501,"34,581,511"
Iberiabank,Vermilion,29.991443,-92.20722,LA,70501,"34,581,511"
Iberiabank,Jackson,35.604986,-91.251095,LA,70501,"34,581,511"
Iberiabank,Miami-Dade,25.77243,-80.187374,LA,70501,"34,581,511"
Iberiabank,Gwinnett,33.965048,-84.222342,LA,70501,"34,581,511"
Iberiabank,Lafayette,30.226566,-92.019008,LA,70501,"34,581,511"
Iberiabank,Lafayette,30.228455,-92.087114,LA,70501,"34,581,511"
Iberiabank,Lafayette,30.166832,-92.037011,LA,70501,"34,581,511"
Iberiabank,Palm Beach,26.84413,-80.062535,LA,70501,"34,581,511"
Iberiabank,Palm Beach,26.8443,-80.064481,LA,70501,"34,581,511"
Iberiabank,Hillsborough,27.947075,-82.457206,LA,70501,"34,581,511"
Iberiabank,Jefferson,33.51663,-86.805661,LA,70501,"34,581,511"
Iberiabank,Randolph,36.259684,-90.970727,LA,70501,"34,581,511"
Iberiabank,St. Tammany,30.286409,-89.737842,LA,70501,"34,581,511"
Iberiabank,Miami-Dade,25.753581,-80.258672,LA,70501,"34,581,511"
Iberiabank,Collier,26.272248,-81.778203,LA,70501,"34,581,511"
Iberiabank,Lafayette,30.18468,-92.009415,LA,70501,"34,581,511"
Iberiabank,Dekalb,33.89053,-84.321331,LA,70501,"34,581,511"
Iberiabank,Lee,26.644661,-81.869213,LA,70501,"34,581,511"
Iberiabank,Baldwin,30.556368,-87.893139,LA,70501,"34,581,511"
Iberiabank,Jefferson,33.487238,-86.787345,LA,70501,"34,581,511"
Iberiabank,Orleans,29.963435,-90.084005,LA,70501,"34,581,511"
Iberiabank,Washington,36.166841,-94.110774,LA,70501,"34,581,511"
Iberiabank,St. Johns,30.240296,-81.387271,LA,70501,"34,581,511"
Iberiabank,Collin,33.034019,-96.828888,LA,70501,"34,581,511"
Iberiabank,Shelby,35.138587,-89.977552,LA,70501,"34,581,511"
Iberiabank,Forsyth,34.09817,-84.176561,LA,70501,"34,581,511"
Iberiabank,Harris,29.706084,-95.417813,LA,70501,"34,581,511"
Iberiabank,Miami-Dade,25.695871,-80.163121,LA,70501,"34,581,511"
Iberiabank,Lafayette,30.255556,-92.00556,LA,70501,"34,581,511"
Iberiabank,Lafayette,30.208376,-92.036592,LA,70501,"34,581,511"
Iberiabank,Shelby,33.316217,-86.799268,LA,70501,"34,581,511"
Iberiabank,Craighead,35.813686,-90.71372,LA,70501,"34,581,511"
Iberiabank,Jefferson,33.360542,-86.831024,LA,70501,"34,581,511"
Iberiabank,New York,40.75627,-73.974783,LA,70501,"34,581,511"
Iberiabank,Manatee,27.389078,-82.512501,LA,70501,"34,581,511"
Iberiabank,Jefferson,33.482976,-86.773431,LA,70501,"34,581,511"
Iberiabank,Calcasieu,30.30068,-93.198989,LA,70501,"34,581,511"
Iberiabank,Jefferson,30.022803,-90.270448,LA,70501,"34,581,511"
Iberiabank,Jefferson,30.004335,-90.153645,LA,70501,"34,581,511"
Iberiabank,Calcasieu,30.203367,-93.218499,LA,70501,"34,581,511"
Iberiabank,Fulton,33.835935,-84.381917,LA,70501,"34,581,511"
Iberiabank,Dekalb,33.845028,-84.315095,LA,70501,"34,581,511"
Iberiabank,Calcasieu,30.201793,-93.179998,LA,70501,"34,581,511"
Iberiabank,Orleans,30.005229,-90.11227,LA,70501,"34,581,511"
Iberiabank,Pinellas,28.05941,-82.708464,LA,70501,"34,581,511"
Iberiabank,Orleans,29.998771,-90.060028,LA,70501,"34,581,511"
Iberiabank,Orange,28.545738,-81.373131,LA,70501,"34,581,511"
Iberiabank,Caddo,32.514136,-93.748004,LA,70501,"34,581,511"
Iberiabank,Miami-Dade,25.804741,-80.337159,LA,70501,"34,581,511"
Iberiabank,Lafayette,30.154345,-92.028553,LA,70501,"34,581,511"
Iberiabank,Sarasota,27.352419,-82.503341,LA,70501,"34,581,511"
Iberiabank,Jefferson,30.010241,-90.154701,LA,70501,"34,581,511"
Iberiabank,Orleans,29.927985,-90.091784,LA,70501,"34,581,511"
Iberiabank,Washington,36.102728,-94.297651,LA,70501,"34,581,511"
Iberiabank,Monroe,25.070858,-80.463616,LA,70501,"34,581,511"
Iberiabank,East Baton Rouge,30.421326,-91.153287,LA,70501,"34,581,511"
Iberiabank,Cobb,33.87818,-84.465525,LA,70501,"34,581,511"
Iberiabank,Shelby,35.115381,-89.905083,LA,70501,"34,581,511"
Iberiabank,East Baton Rouge,30.414551,-91.098915,LA,70501,"34,581,511"
Iberiabank,Jefferson,30.004367,-90.168748,LA,70501,"34,581,511"
Iberiabank,Harris,29.7328,-95.438646,LA,70501,"34,581,511"
Iberiabank,Collier,26.192311,-81.799883,LA,70501,"34,581,511"
Iberiabank,Miami-Dade,25.81375,-80.127654,LA,70501,"34,581,511"
Iberiabank,Madison,34.735184,-86.58669,LA,70501,"34,581,511"
Iberiabank,Lincoln,32.53241,-92.63778,LA,70501,"34,581,511"
Iberiabank,Lafayette,30.198076,-92.070564,LA,70501,"34,581,511"
Iberiabank,Orleans,29.974014,-90.099597,LA,70501,"34,581,511"
Iberiabank,Iberia,29.995504,-91.807156,LA,70501,"34,581,511"
Iberiabank,Calcasieu,30.227792,-93.325536,LA,70501,"34,581,511"
Iberiabank,Hillsborough,27.976637,-82.501358,LA,70501,"34,581,511"
Iberiabank,Craighead,35.83857,-90.704961,LA,70501,"34,581,511"
Iberiabank,Collier,26.142675,-81.794944,LA,70501,"34,581,511"
Iberiabank,St. Landry,30.532543,-92.079475,LA,70501,"34,581,511"
Iberiabank,Miami-Dade,25.774132,-80.19441,LA,70501,"34,581,511"
Iberiabank,Calcasieu,30.176798,-93.249289,LA,70501,"34,581,511"
Iberiabank,Calcasieu,30.17438,-93.375882,LA,70501,"34,581,511"
Iberiabank,Broward,26.119156,-80.138575,LA,70501,"34,581,511"
Iberiabank,Pulaski,34.797262,-92.255688,LA,70501,"34,581,511"
Iberiabank,Lafayette,30.202554,-92.016359,LA,70501,"34,581,511"
Iberiabank,Lee,26.595397,-81.883969,LA,70501,"34,581,511"
Iberiabank,Jefferson,29.985193,-90.129149,LA,70501,"34,581,511"
Iberiabank,Madison,34.69573,-86.568294,LA,70501,"34,581,511"
Iberiabank,Shelby,35.113797,-89.898836,LA,70501,"34,581,511"
Iberiabank,Orleans,29.924628,-90.107896,LA,70501,"34,581,511"
Iberiabank,Pinellas,27.777572,-82.638592,LA,70501,"34,581,511"
Iberiabank,Seminole,28.704296,-81.326933,LA,70501,"34,581,511"
Iberiabank,Seminole,28.695692,-81.413062,LA,70501,"34,581,511"
Iberiabank,Fort Bend,29.588383,-95.63408,LA,70501,"34,581,511"
Iberiabank,Saline,34.621793,-92.504512,LA,70501,"34,581,511"
Iberiabank,Jefferson,29.965564,-90.191528,LA,70501,"34,581,511"
Iberiabank,Lafayette,30.183765,-92.068721,LA,70501,"34,581,511"
Iberiabank,Seminole,28.661773,-81.403824,LA,70501,"34,581,511"
Iberiabank,Collier,26.176254,-81.712118,LA,70501,"34,581,511"
Iberiabank,Madison,34.691945,-86.734971,LA,70501,"34,581,511"
Iberiabank,Manatee,27.494374,-82.494989,LA,70501,"34,581,511"
Iberiabank,Monroe,24.716528,-81.074182,LA,70501,"34,581,511"
Iberiabank,Acadia,30.215232,-92.373937,LA,70501,"34,581,511"
Iberiabank,Pulaski,34.769379,-92.340925,LA,70501,"34,581,511"
Iberiabank,Manatee,27.435878,-82.575506,LA,70501,"34,581,511"
Iberiabank,Miami-Dade,25.909891,-80.298446,LA,70501,"34,581,511"
Iberiabank,Orange,28.543204,-81.378307,LA,70501,"34,581,511"
Iberiabank,Orange,28.579036,-81.372115,LA,70501,"34,581,511"
Iberiabank,Orleans,29.949457,-90.069351,LA,70501,"34,581,511"
Iberiabank,Collier,25.952532,-81.723983,LA,70501,"34,581,511"
Iberiabank,Palm Beach,26.708227,-80.052033,LA,70501,"34,581,511"
Iberiabank,Ouachita,32.513515,-92.156403,LA,70501,"34,581,511"
Iberiabank,Hillsborough,27.938251,-82.50572,LA,70501,"34,581,511"
Iberiabank,Jefferson,33.448473,-86.789668,LA,70501,"34,581,511"
Iberiabank,Orleans,29.945209,-90.113241,LA,70501,"34,581,511"
Iberiabank,Orleans,29.946926,-90.113993,LA,70501,"34,581,511"
Iberiabank,Mobile,30.691072,-88.044399,LA,70501,"34,581,511"
Iberiabank,Lee,26.535826,-81.82415,LA,70501,"34,581,511"
Iberiabank,Caddo,32.446533,-93.725961,LA,70501,"34,581,511"
Iberiabank,St. Tammany,30.459137,-90.127161,LA,70501,"34,581,511"
Iberiabank,Terrebonne,29.593351,-90.719836,LA,70501,"34,581,511"
Iberiabank,Benton,36.365145,-94.220568,LA,70501,"34,581,511"
Iberiabank,Cobb,33.969093,-84.547897,LA,70501,"34,581,511"
Iberiabank,Seminole,28.786252,-81.359426,LA,70501,"34,581,511"
Iberiabank,East Baton Rouge,30.378847,-91.139583,LA,70501,"34,581,511"
Iberiabank,Shelby,35.094874,-89.813748,LA,70501,"34,581,511"
Iberiabank,Lee,26.514874,-81.898785,LA,70501,"34,581,511"
Iberiabank,Collier,26.160242,-81.766816,LA,70501,"34,581,511"
Iberiabank,Pinellas,27.762987,-82.734859,LA,70501,"34,581,511"
Iberiabank,Sarasota,27.328874,-82.538455,LA,70501,"34,581,511"
Iberiabank,Shelby,35.11272,-89.799495,LA,70501,"34,581,511"
Iberiabank,Ouachita,32.527494,-92.038876,LA,70501,"34,581,511"
Iberiabank,Lafayette,30.321789,-92.041092,LA,70501,"34,581,511"
Iberiabank,Lee,26.637336,-81.940984,LA,70501,"34,581,511"
Iberiabank,Sarasota,27.234129,-82.498354,LA,70501,"34,581,511"
Iberiabank,Dallas,32.862174,-96.804197,LA,70501,"34,581,511"
Iberiabank,Miami-Dade,25.866737,-80.29916,LA,70501,"34,581,511"
Iberiabank,Orange,28.590317,-81.360903,LA,70501,"34,581,511"
Iberiabank,St. Tammany,30.378409,-90.091339,LA,70501,"34,581,511"
Iberiabank,Harris,29.899836,-95.549424,LA,70501,"34,581,511"
Iberiabank,Palm Beach,26.448412,-80.066987,LA,70501,"34,581,511"
Iberiabank,Miami-Dade,25.685406,-80.314896,LA,70501,"34,581,511"
Iberiabank,Lee,26.558384,-81.905632,LA,70501,"34,581,511"
Iberiabank,Collier,26.25121,-81.796662,LA,70501,"34,581,511"
Iberiabank,Allen,30.489275,-92.850841,LA,70501,"34,581,511"
Iberiabank,Orange,28.530301,-81.376729,LA,70501,"34,581,511"
Iberiabank,Jefferson,29.951136,-90.214215,LA,70501,"34,581,511"
Fidelity Bank,Orleans,29.946822,-90.075402,LA,70113,"1,001,436"
Fidelity Bank,Orleans,29.947194,-90.129523,LA,70113,"1,001,436"
Fidelity Bank,Jefferson,30.001601,-90.137146,LA,70113,"1,001,436"
Fidelity Bank,Orleans,30.020286,-90.113036,LA,70113,"1,001,436"
Fidelity Bank,Jefferson,29.985969,-90.144032,LA,70113,"1,001,436"
Fidelity Bank,Jefferson,29.893595,-90.03789,LA,70113,"1,001,436"
Fidelity Bank,St. Tammany,30.285002,-89.742352,LA,70113,"1,001,436"
Fidelity Bank,St. Tammany,30.465317,-90.084425,LA,70113,"1,001,436"
Fidelity Bank,St. Tammany,30.367937,-90.070512,LA,70113,"1,001,436"
Fidelity Bank,Jefferson,30.015478,-90.239567,LA,70113,"1,001,436"
Fidelity Bank,Orleans,29.924772,-90.021561,LA,70113,"1,001,436"
Fidelity Bank,Jefferson,30.004429,-90.169406,LA,70113,"1,001,436"
Fidelity Bank,Tangipahoa,30.483504,-90.461551,LA,70113,"1,001,436"
Fidelity Bank,Orleans,30.02587,-89.990801,LA,70113,"1,001,436"
Fidelity Bank,East Baton Rouge,30.425035,-91.132199,LA,70113,"1,001,436"
Fidelity Bank,Jefferson,29.949063,-90.213702,LA,70113,"1,001,436"
Eureka Homestead,Jefferson,30.001888,-90.14426,LA,70005,"104,844"
Heritage Bank Of St Tammany,St. Tammany,30.285114,-89.77693,LA,70433,"139,227"
Heritage Bank Of St Tammany,St. Tammany,30.474772,-90.094222,LA,70433,"139,227"
Heritage Bank Of St Tammany,St. Tammany,30.404538,-90.156751,LA,70433,"139,227"
Anthem Bank & Trust,Miami-Dade,25.752468,-80.255713,LA,70764,"158,549"
Anthem Bank & Trust,East Baton Rouge,30.376476,-91.093325,LA,70764,"158,549"
Anthem Bank & Trust,Travis,30.339268,-97.970614,LA,70764,"158,549"
Anthem Bank & Trust,Iberville,30.285786,-91.233629,LA,70764,"158,549"
Anthem Bank & Trust,Burnet,30.605214,-98.370724,LA,70764,"158,549"
Century Next Bank,Ashley,33.357707,-91.850548,LA,71270,"524,531"
Century Next Bank,Ashley,33.158148,-91.945965,LA,71270,"524,531"
Century Next Bank,Ouachita,32.510659,-92.144855,LA,71270,"524,531"
Century Next Bank,Ashley,33.133709,-91.961627,LA,71270,"524,531"
Century Next Bank,Lincoln,32.550254,-92.610038,LA,71270,"524,531"
Century Next Bank,Ouachita,32.528834,-92.099722,LA,71270,"524,531"
Century Next Bank,Lincoln,32.533451,-92.637829,LA,71270,"524,531"
Century Next Bank,Ashley,33.229615,-91.797542,LA,71270,"524,531"
St Landry Homestead Federal Savings Bank,St. Landry,30.479749,-92.091026,LA,70570,"238,403"
St Landry Homestead Federal Savings Bank,St. Landry,30.535575,-92.082647,LA,70570,"238,403"
St Landry Homestead Federal Savings Bank,St. Landry,30.552217,-91.959784,LA,70570,"238,403"
St Landry Homestead Federal Savings Bank,St. Landry,30.494887,-92.405201,LA,70570,"238,403"
Citizens Savings Bank,Washington,30.760488,-89.847637,LA,70427,"251,835"
Citizens Savings Bank,St. Tammany,30.419389,-90.083632,LA,70427,"251,835"
Citizens Savings Bank,Washington,30.788757,-89.864452,LA,70427,"251,835"
Citizens Savings Bank,Washington,30.96407,-89.810875,LA,70427,"251,835"
Citizens Savings Bank,Washington,30.848509,-90.158334,LA,70427,"251,835"
Abbeville Building & Loan (A State-Chartered Savings Bank),Vermilion,29.972256,-92.12472,LA,70510,"59,030"
Beauregard FSB,Beauregard,30.846908,-93.285562,LA,70634,"68,564"
Beauregard FSB,Beauregard,30.85274,-93.288978,LA,70634,"68,564"
First Federal Bank Of Louisiana,Calcasieu,30.190871,-93.57489,LA,70601,"998,597"
First Federal Bank Of Louisiana,Calcasieu,30.224975,-93.220341,LA,70601,"998,597"
First Federal Bank Of Louisiana,Calcasieu,30.223912,-93.204979,LA,70601,"998,597"
First Federal Bank Of Louisiana,Calcasieu,30.259157,-93.258069,LA,70601,"998,597"
First Federal Bank Of Louisiana,Allen,30.81425,-92.662177,LA,70601,"998,597"
First Federal Bank Of Louisiana,Calcasieu,30.22759,-93.351569,LA,70601,"998,597"
First Federal Bank Of Louisiana,Calcasieu,30.210293,-93.376232,LA,70601,"998,597"
First Federal Bank Of Louisiana,Calcasieu,30.176121,-93.218212,LA,70601,"998,597"
First Federal Bank Of Louisiana,Rapides,31.32414,-92.390529,LA,70601,"998,597"
First Federal Bank Of Louisiana,Calcasieu,30.183545,-93.249297,LA,70601,"998,597"
First Federal Bank Of Louisiana,Rapides,31.29557,-92.493383,LA,70601,"998,597"
First Federal Bank Of Louisiana,Beauregard,30.852683,-93.289106,LA,70601,"998,597"
First Federal Bank Of Louisiana,Rapides,31.268588,-92.486329,LA,70601,"998,597"
First Federal Bank Of Louisiana,Natchitoches,31.785413,-93.119643,LA,70601,"998,597"
First Federal Bank Of Louisiana,Calcasieu,30.300657,-93.20553,LA,70601,"998,597"
First Federal Bank Of Louisiana,Natchitoches,31.753302,-93.074675,LA,70601,"998,597"
Rayne Building and Loan Association,Acadia,30.236889,-92.268726,LA,70578,"59,851"
Homeland Federal Savings Bank,Ouachita,32.514389,-92.147816,LA,71418,"386,709"
Homeland Federal Savings Bank,Ouachita,32.525512,-92.102211,LA,71418,"386,709"
Homeland Federal Savings Bank,La Salle,31.681192,-92.134858,LA,71418,"386,709"
Homeland Federal Savings Bank,Caldwell,32.039699,-92.119186,LA,71418,"386,709"
Gulf Coast Bank and Trust Company,St. Tammany,30.420559,-90.08386,LA,70130,"2,237,684"
Gulf Coast Bank and Trust Company,East Baton Rouge,30.364317,-91.062838,LA,70130,"2,237,684"
Gulf Coast Bank and Trust Company,St. Bernard,29.937759,-89.948374,LA,70130,"2,237,684"
Gulf Coast Bank and Trust Company,Jefferson,30.002271,-90.143402,LA,70130,"2,237,684"
Gulf Coast Bank and Trust Company,St. Tammany,30.221549,-89.813433,LA,70130,"2,237,684"
Gulf Coast Bank and Trust Company,Jefferson,29.886227,-90.054958,LA,70130,"2,237,684"
Gulf Coast Bank and Trust Company,Orleans,29.952088,-90.069823,LA,70130,"2,237,684"
Gulf Coast Bank and Trust Company,Orleans,29.952088,-90.069823,LA,70130,"2,237,684"
Gulf Coast Bank and Trust Company,Jefferson,29.91668,-90.065268,LA,70130,"2,237,684"
Gulf Coast Bank and Trust Company,Orleans,29.975515,-90.099783,LA,70130,"2,237,684"
Gulf Coast Bank and Trust Company,Osceola,28.329617,-81.535052,LA,70130,"2,237,684"
Gulf Coast Bank and Trust Company,Tangipahoa,30.502615,-90.463276,LA,70130,"2,237,684"
Gulf Coast Bank and Trust Company,Orleans,29.923915,-90.086549,LA,70130,"2,237,684"
Gulf Coast Bank and Trust Company,Jefferson,30.01852,-90.239302,LA,70130,"2,237,684"
Gulf Coast Bank and Trust Company,St. Tammany,30.475291,-90.096615,LA,70130,"2,237,684"
Gulf Coast Bank and Trust Company,St. Tammany,30.394814,-90.090269,LA,70130,"2,237,684"
Gulf Coast Bank and Trust Company,Jefferson,30.006087,-90.195664,LA,70130,"2,237,684"
Gulf Coast Bank and Trust Company,Dallas,32.862328,-96.8101,LA,70130,"2,237,684"
Gulf Coast Bank and Trust Company,East Baton Rouge,30.433968,-91.114148,LA,70130,"2,237,684"
Gulf Coast Bank and Trust Company,Jefferson,29.899271,-90.030331,LA,70130,"2,237,684"
Gulf Coast Bank and Trust Company,St. Bernard,29.957054,-89.988594,LA,70130,"2,237,684"
Gulf Coast Bank and Trust Company,Orleans,30.004223,-90.104769,LA,70130,"2,237,684"
First Bank and Trust,St. Tammany,30.441266,-90.083561,LA,70112,"1,164,272"
First Bank and Trust,Tangipahoa,30.487115,-90.482805,LA,70112,"1,164,272"
First Bank and Trust,Tangipahoa,30.726627,-90.510665,LA,70112,"1,164,272"
First Bank and Trust,St. Tammany,30.286238,-89.737935,LA,70112,"1,164,272"
First Bank and Trust,Harrison,30.397316,-88.992979,LA,70112,"1,164,272"
First Bank and Trust,Jefferson,29.870492,-90.048309,LA,70112,"1,164,272"
First Bank and Trust,Livingston,30.396977,-90.543641,LA,70112,"1,164,272"
First Bank and Trust,Jefferson,30.004647,-90.173732,LA,70112,"1,164,272"
First Bank and Trust,Orleans,29.918104,-90.009243,LA,70112,"1,164,272"
First Bank and Trust,Jefferson,29.984881,-90.129071,LA,70112,"1,164,272"
First Bank and Trust,Walton,30.37917,-86.314815,LA,70112,"1,164,272"
First Bank and Trust,Lafayette,30.17305,-92.041353,LA,70112,"1,164,272"
First Bank and Trust,East Baton Rouge,30.420024,-91.099307,LA,70112,"1,164,272"
First Bank and Trust,Orleans,29.950245,-90.073161,LA,70112,"1,164,272"
Crescent Bank & Trust,Orleans,29.950438,-90.075017,LA,70163,"930,957"
Crescent Bank & Trust,St. Tammany,30.39181,-90.089813,LA,70163,"930,957"
Crescent Bank & Trust,Jefferson,30.001529,-90.132754,LA,70163,"930,957"
The Bank,Acadia,30.245931,-92.269656,LA,70546,"284,602"
The Bank,Jefferson Davis,30.232118,-92.821752,LA,70546,"284,602"
The Bank,Calcasieu,30.238282,-93.013547,LA,70546,"284,602"
The Bank,Jefferson Davis,30.233562,-92.654909,LA,70546,"284,602"
The Bank,Jefferson Davis,30.233562,-92.654909,LA,70546,"284,602"
The Bank,Acadia,30.319429,-92.50023,LA,70546,"284,602"
The Bank,Jefferson Davis,30.091554,-92.672185,LA,70546,"284,602"
Commercial Capital Bank,Ashley,33.133563,-91.960163,LA,71232,"237,334"
Commercial Capital Bank,Morehouse,32.777064,-91.885561,LA,71232,"237,334"
Commercial Capital Bank,Richland,32.454924,-91.492806,LA,71232,"237,334"
Commercial Capital Bank,West Carroll,32.86103,-91.382861,LA,71232,"237,334"
Resource Bank,St. Tammany,30.439142,-90.141229,LA,70433,"894,828"
Resource Bank,St. Tammany,30.394381,-90.102688,LA,70433,"894,828"
Resource Bank,St. Tammany,30.288798,-89.728999,LA,70433,"894,828"
Resource Bank,Jefferson,30.000954,-90.126553,LA,70433,"894,828"
Resource Bank,Washington,30.77898,-89.865995,LA,70433,"894,828"
Resource Bank,Orleans,29.949351,-90.068031,LA,70433,"894,828"
Resource Bank,St. Tammany,30.480047,-90.091704,LA,70433,"894,828"
Resource Bank,St. Tammany,30.419053,-90.040737,LA,70433,"894,828"
Resource Bank,St. Tammany,30.459248,-90.126496,LA,70433,"894,828"
Resource Bank,Washington,30.846475,-90.154515,LA,70433,"894,828"
Resource Bank,East Baton Rouge,30.411522,-91.079148,LA,70433,"894,828"
Synergy Bank,Terrebonne,29.592595,-90.735217,LA,70360,"665,790"
Synergy Bank,Lafourche,29.779534,-90.806217,LA,70360,"665,790"
Synergy Bank,Lafourche,29.799692,-90.815009,LA,70360,"665,790"
Synergy Bank,Terrebonne,29.5868,-90.82169,LA,70360,"665,790"
Synergy Bank,Terrebonne,29.681632,-90.783534,LA,70360,"665,790"
Synergy Bank,Terrebonne,29.583095,-90.695459,LA,70360,"665,790"
Red River Bank,Caddo,32.385151,-93.734699,LA,71301,"2,361,744"
Red River Bank,Rapides,31.087119,-92.399021,LA,71301,"2,361,744"
Red River Bank,Ascension,30.258413,-90.989163,LA,71301,"2,361,744"
Red River Bank,Rapides,31.279912,-92.476718,LA,71301,"2,361,744"
Red River Bank,East Baton Rouge,30.543148,-91.02616,LA,71301,"2,361,744"
Red River Bank,Calcasieu,30.227193,-93.359377,LA,71301,"2,361,744"
Red River Bank,Caddo,32.443283,-93.713467,LA,71301,"2,361,744"
Red River Bank,East Baton Rouge,30.422975,-91.151627,LA,71301,"2,361,744"
Red River Bank,Bossier,32.528764,-93.704838,LA,71301,"2,361,744"
Red River Bank,Rapides,31.332834,-92.398048,LA,71301,"2,361,744"
Red River Bank,Bossier,32.571553,-93.712805,LA,71301,"2,361,744"
Red River Bank,Rapides,31.279058,-92.457309,LA,71301,"2,361,744"
Red River Bank,Calcasieu,30.183349,-93.232491,LA,71301,"2,361,744"
Red River Bank,Rapides,31.04214,-92.531466,LA,71301,"2,361,744"
Red River Bank,Rapides,31.324214,-92.390528,LA,71301,"2,361,744"
Red River Bank,Avoyelles,31.126455,-92.075225,LA,71301,"2,361,744"
Red River Bank,East Baton Rouge,30.402075,-91.105165,LA,71301,"2,361,744"
Red River Bank,East Baton Rouge,30.406041,-91.016249,LA,71301,"2,361,744"
Red River Bank,Rapides,31.295278,-92.507427,LA,71301,"2,361,744"
Red River Bank,De Soto,32.287783,-93.825397,LA,71301,"2,361,744"
Red River Bank,Caddo,32.45531,-93.746106,LA,71301,"2,361,744"
Red River Bank,Rapides,31.310777,-92.447849,LA,71301,"2,361,744"
Red River Bank,Caddo,32.513413,-93.746837,LA,71301,"2,361,744"
Red River Bank,St. Tammany,30.456368,-90.133054,LA,71301,"2,361,744"
Red River Bank,East Baton Rouge,30.431173,-91.083405,LA,71301,"2,361,744"
Commerce Community Bank,Chicot,33.110289,-91.261995,LA,71263,"62,313"
Commerce Community Bank,West Carroll,32.860924,-91.38569,LA,71263,"62,313"
Community First Bank,Iberia,29.985106,-91.819898,LA,70560,"471,622"
Community First Bank,St. Martin,30.288615,-91.910164,LA,70560,"471,622"
Community First Bank,St. Martin,30.145811,-91.822893,LA,70560,"471,622"
Community First Bank,Lafayette,30.109265,-92.017404,LA,70560,"471,622"
Community First Bank,Iberia,30.032408,-91.847506,LA,70560,"471,622"
Community First Bank,Iberia,30.058358,-91.737719,LA,70560,"471,622"
Community First Bank,Iberia,30.031662,-91.784934,LA,70560,"471,622"
Community First Bank,Lafayette,30.138343,-91.961486,LA,70560,"471,622"
B1bank,Webster,32.621306,-93.270638,LA,70801,"3,964,700"
B1bank,Cameron,30.055688,-93.213018,LA,70801,"3,964,700"
B1bank,Lafourche,29.799253,-90.817785,LA,70801,"3,964,700"
B1bank,East Baton Rouge,30.376202,-91.091858,LA,70801,"3,964,700"
B1bank,East Baton Rouge,30.412852,-91.055903,LA,70801,"3,964,700"
B1bank,Lafayette,30.17271,-92.039999,LA,70801,"3,964,700"
B1bank,Webster,32.624405,-93.254082,LA,70801,"3,964,700"
B1bank,Terrebonne,29.597773,-90.743974,LA,70801,"3,964,700"
B1bank,West Carroll,32.876082,-91.427138,LA,70801,"3,964,700"
B1bank,Lafourche,29.492283,-90.328611,LA,70801,"3,964,700"
B1bank,Calcasieu,30.227464,-93.359245,LA,70801,"3,964,700"
B1bank,Calcasieu,30.229773,-93.361361,LA,70801,"3,964,700"
B1bank,Rockwall,32.860401,-96.473601,LA,70801,"3,964,700"
B1bank,St. Tammany,30.454428,-90.082419,LA,70801,"3,964,700"
B1bank,Calcasieu,30.304393,-93.200103,LA,70801,"3,964,700"
B1bank,St. Martin,30.287937,-91.909225,LA,70801,"3,964,700"
B1bank,Ouachita,32.529306,-92.116634,LA,70801,"3,964,700"
B1bank,Ascension,30.210671,-90.940805,LA,70801,"3,964,700"
B1bank,Vermilion,29.998759,-92.284059,LA,70801,"3,964,700"
B1bank,Vermilion,29.99904,-92.284987,LA,70801,"3,964,700"
B1bank,Calcasieu,30.45186,-93.437362,LA,70801,"3,964,700"
B1bank,Beauregard,30.835608,-93.250662,LA,70801,"3,964,700"
B1bank,Jefferson,29.983597,-90.148862,LA,70801,"3,964,700"
B1bank,Ouachita,32.523602,-92.147579,LA,70801,"3,964,700"
B1bank,Beauregard,30.848848,-93.289124,LA,70801,"3,964,700"
B1bank,Livingston,30.526173,-90.956246,LA,70801,"3,964,700"
B1bank,West Baton Rouge,30.455031,-91.210386,LA,70801,"3,964,700"
B1bank,Calcasieu,30.184375,-93.179775,LA,70801,"3,964,700"
B1bank,Vernon,31.141182,-93.263768,LA,70801,"3,964,700"
B1bank,Richland,32.460862,-91.75737,LA,70801,"3,964,700"
B1bank,Webster,32.613495,-93.288968,LA,70801,"3,964,700"
B1bank,Terrebonne,29.604259,-90.754243,LA,70801,"3,964,700"
B1bank,Iberia,30.050775,-91.922105,LA,70801,"3,964,700"
B1bank,Calcasieu,30.169241,-93.232383,LA,70801,"3,964,700"
B1bank,East Baton Rouge,30.450312,-91.185557,LA,70801,"3,964,700"
B1bank,Terrebonne,29.474002,-90.586004,LA,70801,"3,964,700"
B1bank,Dallas,32.939389,-96.819856,LA,70801,"3,964,700"
B1bank,Terrebonne,29.636064,-90.759956,LA,70801,"3,964,700"
B1bank,St. Martin,30.118259,-91.831165,LA,70801,"3,964,700"
B1bank,Morehouse,32.778737,-91.906139,LA,70801,"3,964,700"
B1bank,Terrebonne,29.58674,-90.701022,LA,70801,"3,964,700"
B1bank,Richland,32.471309,-91.75822,LA,70801,"3,964,700"
B1bank,Calcasieu,30.230096,-93.217038,LA,70801,"3,964,700"
B1bank,West Baton Rouge,30.384865,-91.245778,LA,70801,"3,964,700"
B1bank,East Baton Rouge,30.427194,-91.106913,LA,70801,"3,964,700"
B1bank,Caddo,32.512626,-93.744535,LA,70801,"3,964,700"
B1bank,Lafayette,30.2009,-92.029211,LA,70801,"3,964,700"
B1bank,Iberia,30.001783,-91.800722,LA,70801,"3,964,700"
B1bank,St. Landry,30.49488,-92.41751,LA,70801,"3,964,700"
"Investar Bank, National Association",Evangeline,30.782975,-92.425576,LA,70808,"2,356,635"
"Investar Bank, National Association",East Baton Rouge,30.414821,-91.059822,LA,70808,"2,356,635"
"Investar Bank, National Association",East Baton Rouge,30.654214,-91.190374,LA,70808,"2,356,635"
"Investar Bank, National Association",East Baton Rouge,30.348109,-91.027692,LA,70808,"2,356,635"
"Investar Bank, National Association",Victoria,28.809544,-96.988306,LA,70808,"2,356,635"
"Investar Bank, National Association",Calcasieu,30.260367,-93.25817,LA,70808,"2,356,635"
"Investar Bank, National Association",Harris,29.731736,-95.431763,LA,70808,"2,356,635"
"Investar Bank, National Association",Galveston,29.395018,-94.930867,LA,70808,"2,356,635"
"Investar Bank, National Association",Sumter,32.491175,-88.298621,LA,70808,"2,356,635"
"Investar Bank, National Association",West Baton Rouge,30.413617,-91.225291,LA,70808,"2,356,635"
"Investar Bank, National Association",Ascension,30.320452,-90.966783,LA,70808,"2,356,635"
"Investar Bank, National Association",Galveston,29.445856,-95.08393,LA,70808,"2,356,635"
"Investar Bank, National Association",Lafayette,30.16651,-92.060509,LA,70808,"2,356,635"
"Investar Bank, National Association",Livingston,30.478489,-90.955819,LA,70808,"2,356,635"
"Investar Bank, National Association",St. Tammany,30.403573,-90.117597,LA,70808,"2,356,635"
"Investar Bank, National Association",Jefferson,30.001251,-90.127722,LA,70808,"2,356,635"
"Investar Bank, National Association",Ascension,30.240033,-90.91582,LA,70808,"2,356,635"
"Investar Bank, National Association",Orleans,29.957179,-90.186935,LA,70808,"2,356,635"
"Investar Bank, National Association",East Baton Rouge,30.392144,-91.157533,LA,70808,"2,356,635"
"Investar Bank, National Association",Tangipahoa,30.498064,-90.460117,LA,70808,"2,356,635"
"Investar Bank, National Association",Jim Wells,27.750188,-98.071,LA,70808,"2,356,635"
"Investar Bank, National Association",Evangeline,30.64099,-92.419623,LA,70808,"2,356,635"
"Investar Bank, National Association",Sumter,32.594816,-88.182903,LA,70808,"2,356,635"
"Investar Bank, National Association",East Baton Rouge,30.397351,-91.113327,LA,70808,"2,356,635"
"Investar Bank, National Association",West Feliciana,30.797811,-91.383972,LA,70808,"2,356,635"
"Investar Bank, National Association",Evangeline,30.693295,-92.286616,LA,70808,"2,356,635"
"Investar Bank, National Association",East Baton Rouge,30.530853,-91.028154,LA,70808,"2,356,635"
"Investar Bank, National Association",Lafayette,30.208681,-92.014105,LA,70808,"2,356,635"
"Investar Bank, National Association",East Feliciana,30.836308,-91.216479,LA,70808,"2,356,635"
"Investar Bank, National Association",East Feliciana,30.761274,-91.014808,LA,70808,"2,356,635"
Lakeside Bank,Calcasieu,30.203274,-93.18959,LA,70605,"253,096"
Lakeside Bank,Calcasieu,30.25909,-93.258182,LA,70605,"253,096"
Lakeside Bank,Calcasieu,30.227574,-93.34744,LA,70605,"253,096"
Lakeside Bank,Calcasieu,30.17249,-93.249152,LA,70605,"253,096"